# 2016 10 26 01 24  3.543 35.3929 133.8859   6.508  0.00 0 0 0    183
 CT06   1.133 1 P
 CT06   1.961 1 S
 CT04   1.321 1 P
 CT04   2.209 1 S
 TK05   1.727 1 P
 0001   3.185 1 S
 0001   1.873 1 P
 0003   1.509 1 P
 CT05   1.257 1 P
 CT05   2.133 1 S
N.SKGH   2.677 1 P
N.SKGH   4.627 1 S
KURAYO   1.657 1 P
KURAYO   2.867 1 S
 TK15   1.187 1 P
 CT08   2.009 1 S
 CT08   1.137 1 P
 0011   2.497 1 P
 0007   1.753 1 P
N.AKSH   7.527 1 S
KU.TUFP   1.601 1 P
KU.TKED   1.293 1 P
KU.TKYD   1.401 1 P
 0019   2.301 1 P
 0019   4.049 1 S
 TK01   1.697 1 P
 0020   3.737 1 S
 0020   2.085 1 P
 0016   2.469 1 S
 0016   1.417 1 P
 TK04   1.887 1 P
 0018   1.605 1 P
 0018   2.761 1 S
 0009   1.849 1 S
 0009   1.085 1 P
 0013   1.749 1 P
 0013   3.097 1 S
 CT10   2.561 1 S
 CT10   1.509 1 P
 TK16   1.277 1 P
 CT21   1.285 1 P
 CT21   2.361 1 S
 TK10   1.077 1 P
N.KSBH   2.557 1 P
N.KSBH   4.307 1 S
 CT02   2.593 1 S
 CT02   1.521 1 P
# 2016 10 26 01 24 40.091 35.3962 133.8431   7.594  0.00 0 0 0    184
 TK05   1.699 1 P
 0001   3.157 1 S
 0001   1.829 1 P
N.SKGH   3.719 1 S
 0011   2.001 1 P
 0007   1.401 1 P
 0007   2.413 1 S
 0019   3.397 1 S
 0019   2.005 1 P
 0020   3.361 1 S
 0020   1.869 1 P
 TK01   1.559 1 P
 TK03   1.999 1 P
 TK04   1.819 1 P
 0016   1.397 1 P
 0018   1.729 1 P
 0013   2.125 1 P
 0013   3.661 1 S
 CT10   2.101 1 P
 TK16   1.819 1 P
 CT21   1.837 1 P
 CT21   3.201 1 S
 TK10   1.419 1 P
 CT06   1.413 1 P
 TK15   1.469 1 P
 CT04   2.561 1 S
 CT04   1.525 1 P
 CT05   2.225 1 S
 CT05   1.329 1 P
# 2016 10 26 01 25 38.609 35.4310 133.8359   4.001  0.00 0 0 0    185
KU.TUFP   0.627 1 P
KU.TUFP   1.083 1 S
 0007   0.847 1 P
 0007   1.607 1 S
N.SKGH   2.131 1 P
N.SKGH   3.641 1 S
 0011   1.567 1 P
 0011   2.887 1 S
N.AKSH   3.641 1 P
N.AKSH   6.221 1 S
 0019   1.131 1 P
 0019   2.151 1 S
 0020   0.979 1 P
 0020   1.943 1 S
 TK03   1.151 1 P
 TK01   0.641 1 P
 TK04   0.961 1 P
 0018   1.927 1 S
 0018   1.063 1 P
 0013   2.995 1 S
 0013   1.655 1 P
 0016   1.251 1 S
 0016   0.675 1 P
 CT10   2.055 1 P
 0009   1.991 1 S
 0009   1.079 1 P
 TK16   1.751 1 P
 CT21   1.715 1 P
KU.TKYD   1.119 1 S
KU.TKYD   0.599 1 P
 TK10   1.361 1 P
 CT06   2.887 1 S
 CT06   1.495 1 P
 CT02   2.143 1 P
 CT02   3.935 1 S
 CT08   1.991 1 S
 CT08   1.023 1 P
KU.TKED   0.699 1 P
KU.TKED   1.291 1 S
N.KSBH   3.291 1 P
N.KSBH   5.741 1 S
 TK15   1.111 1 P
 CT04   1.731 1 P
 CT04   3.143 1 S
 CT05   1.287 1 P
 CT05   2.407 1 S
 0003   1.623 1 P
 0003   2.815 1 S
 TK05   1.951 1 P
 0001   3.711 1 S
 0001   2.075 1 P
# 2016 10 26 01 26 34.131 35.4311 133.8160   8.300  0.00 0 0 0    186
 0007   1.437 1 P
 0007   2.557 1 S
N.SKGH   2.269 1 P
N.SKGH   3.809 1 S
 0011   1.793 1 P
 0011   3.061 1 S
N.AKSH   5.959 1 S
 0019   1.581 1 P
 0019   2.725 1 S
 0020   1.565 1 P
 0020   2.821 1 S
 TK03   1.759 1 P
 TK04   1.649 1 P
 TK01   1.489 1 P
 0018   2.945 1 S
 0018   1.785 1 P
 0013   3.813 1 S
 0013   2.221 1 P
 0016   2.645 1 S
 0016   1.557 1 P
 CT10   2.637 1 P
 CT10   4.509 1 S
 0009   3.077 1 S
 0009   1.805 1 P
 TK16   2.379 1 P
 TK10   2.039 1 P
KU.TKED   2.589 1 S
KU.TKED   1.513 1 P
 CT06   2.125 1 P
 CT06   3.709 1 S
 CT08   1.825 1 P
 CT08   3.029 1 S
 CT02   4.501 1 S
 CT02   2.597 1 P
 TK15   1.859 1 P
 CT04   3.721 1 S
 CT04   2.181 1 P
N.KSBH   3.599 1 P
 CT05   1.789 1 P
 CT05   3.241 1 S
 0003   2.073 1 P
 0003   3.529 1 S
 TK05   2.319 1 P
KU.TUFP   2.333 1 S
KU.TUFP   1.365 1 P
 0001   4.117 1 S
 0001   2.405 1 P
# 2016 10 26 01 26 40.832 35.3795 133.8521   7.900  0.00 0 0 0    187
 TK05   1.638 1 P
 0001   2.904 1 S
 0001   1.744 1 P
 0003   2.416 1 S
 0003   1.472 1 P
 CT05   2.272 1 S
 CT05   1.384 1 P
 0011   3.916 1 S
 0007   1.680 1 P
 0007   2.888 1 S
KU.TUFP   1.612 1 P
KU.TUFP   2.684 1 S
 0019   3.924 1 S
 0019   2.300 1 P
 0020   3.560 1 S
 0020   2.204 1 P
 TK01   1.908 1 P
 TK03   2.308 1 P
 TK04   2.108 1 P
 0016   2.880 1 S
 TK15   1.418 1 P
 CT08   2.576 1 S
 CT08   1.432 1 P
 0018   3.376 1 S
 0018   1.976 1 P
 0013   2.256 1 P
 0013   3.928 1 S
 0009   2.672 1 S
 0009   1.576 1 P
 TK10   1.478 1 P
 CT10   2.120 1 P
 CT10   3.568 1 S
 TK16   1.788 1 P
 CT21   3.136 1 S
 CT21   1.776 1 P
 CT06   2.360 1 S
 CT06   1.404 1 P
 CT02   2.940 1 S
 CT02   1.752 1 P
 CT04   2.384 1 S
 CT04   1.440 1 P
N.KSBH   4.448 1 S
N.KSBH   2.648 1 P
# 2016 10 26 01 27 17.974 35.4433 133.8212   5.100  0.00 0 0 0    188
KU.TUFP   0.914 1 P
 0007   1.050 1 P
 0007   1.958 1 S
N.SKGH   3.696 1 S
 0011   1.510 1 P
 0011   2.770 1 S
 0019   0.986 1 P
 0019   1.826 1 S
 0020   1.754 1 S
 TK04   0.996 1 P
 0018   1.242 1 P
 0018   2.218 1 S
 0013   1.818 1 P
 0013   3.302 1 S
 TK01   0.876 1 P
 0016   1.526 1 S
 0009   1.474 1 P
 0009   2.674 1 S
 TK16   2.146 1 P
 CT06   3.554 1 S
 CT06   1.882 1 P
 TK15   1.516 1 P
 TK05   2.276 1 P
 0001   4.194 1 S
 0001   2.414 1 P
# 2016 10 26 01 28 31.999 35.4504 133.8185   5.500  0.00 0 0 0    189
 0007   1.169 1 P
 0007   2.077 1 S
 0011   2.905 1 S
 0019   1.053 1 P
 0019   1.817 1 S
 0020   0.993 1 P
 0020   1.841 1 S
 TK03   1.261 1 P
 TK04   1.161 1 P
 0013   2.009 1 P
 0013   3.505 1 S
 0018   1.413 1 P
 0018   2.369 1 S
 TK01   0.961 1 P
 0016   1.949 1 S
 0016   1.137 1 P
 0009   1.665 1 P
 0009   2.905 1 S
KU.TKED   1.289 1 P
 CT08   2.929 1 S
KU.TUFP   1.601 1 S
# 2016 10 26 01 28 40.141 35.3898 133.8584   5.479  0.00 0 0 0    190
 CT04   1.071 1 P
 CT04   1.795 1 S
 TK05   1.409 1 P
 0001   2.691 1 S
 0001   1.547 1 P
 0003   1.167 1 P
 CT05   0.891 1 P
 TK15   0.919 1 P
KU.TUFP   1.299 1 P
 0009   1.107 1 P
 0009   2.019 1 S
 TK16   1.399 1 P
 CT02   1.507 1 P
 CT02   2.451 1 S
# 2016 10 26 01 29 13.471 35.4241 133.8557   5.100  0.00 0 0 0    191
 0003   2.849 1 S
 TK05   1.909 1 P
 0001   2.053 1 P
 0001   3.513 1 S
 0007   2.073 1 S
 0011   3.321 1 S
 0011   1.793 1 P
 0019   2.681 1 S
 0019   1.445 1 P
 0020   2.377 1 S
 0020   1.217 1 P
 TK01   0.929 1 P
 0016   0.825 1 P
 0016   1.553 1 S
 0018   1.085 1 P
 0018   1.913 1 S
 0013   1.521 1 P
 0009   1.785 1 S
 TK16   1.589 1 P
 TK10   1.239 1 P
 CT06   1.385 1 P
 CT06   2.153 1 S
 CT02   1.977 1 P
 CT02   3.577 1 S
 CT08   1.857 1 S
 CT04   2.837 1 S
 CT04   1.601 1 P
 CT05   2.265 1 S
# 2016 10 26 01 30  0.246 35.4302 133.8329   4.467  0.00 0 0 0    192
KU.TUFP   0.698 1 P
KU.TUFP   1.186 1 S
 0007   0.874 1 P
 0007   1.674 1 S
 0011   1.578 1 P
 0011   2.822 1 S
 0019   1.194 1 P
 0019   2.242 1 S
 0020   1.070 1 P
 0020   2.066 1 S
 TK03   1.224 1 P
 TK01   0.754 1 P
 TK04   1.054 1 P
 0018   2.042 1 S
 0018   1.146 1 P
 0013   3.078 1 S
 0013   1.698 1 P
 0016   1.410 1 S
 0016   0.770 1 P
 CT10   2.082 1 P
 0009   2.050 1 S
 0009   1.134 1 P
 TK16   1.794 1 P
 TK10   1.394 1 P
 CT06   1.518 1 P
 CT06   2.870 1 S
 CT02   3.926 1 S
 CT02   2.146 1 P
 CT08   1.066 1 P
 CT08   2.086 1 S
KU.TKED   1.418 1 S
KU.TKED   0.754 1 P
 CT04   1.746 1 P
 CT04   3.106 1 S
 CT05   1.322 1 P
 CT05   2.418 1 S
 TK05   1.934 1 P
 0001   2.066 1 P
 0001   3.666 1 S
# 2016 10 26 01 30 19.493 35.4141 133.8513   5.302  0.00 0 0 0    193
 TK05   1.757 1 P
 0001   3.255 1 S
 0001   1.875 1 P
KU.TKED   1.571 1 S
KU.TKED   0.899 1 P
 0007   1.143 1 P
 0011   3.287 1 S
 0011   1.863 1 P
KU.TUFP   1.015 1 P
KU.TUFP   1.783 1 S
 TK01   1.147 1 P
 TK03   1.597 1 P
 TK04   1.497 1 P
 0016   1.707 1 S
 0009   0.999 1 P
 CT10   3.007 1 S
 CT10   1.783 1 P
 TK16   1.497 1 P
 CT21   1.447 1 P
 CT21   2.807 1 S
 TK10   1.147 1 P
 CT06   1.219 1 P
 CT02   3.179 1 S
 CT02   1.799 1 P
 CT08   1.763 1 S
 CT08   0.955 1 P
 CT04   1.411 1 P
 CT04   2.635 1 S
 TK15   1.017 1 P
 CT05   2.051 1 S
 CT05   1.127 1 P
# 2016 10 26 01 30 44.871 35.4420 133.8420   4.300  0.00 0 0 0    194
 TK05   2.319 1 P
 0001   4.081 1 S
 0001   2.293 1 P
KU.TUFP   1.529 1 S
KU.TUFP   0.845 1 P
 0007   1.957 1 S
 0007   1.069 1 P
N.SKGH   4.129 1 S
N.SKGH   2.329 1 P
 0011   3.153 1 S
 0011   1.721 1 P
 TK01   0.649 1 P
 0019   1.093 1 P
 0019   2.065 1 S
 0020   0.861 1 P
 0020   1.697 1 S
 TK03   0.969 1 P
 TK04   0.809 1 P
 0018   0.961 1 P
 0018   1.649 1 S
 0013   1.497 1 P
 0013   2.733 1 S
 CT10   2.045 1 P
 TK16   1.819 1 P
 0016   1.297 1 S
 0016   0.693 1 P
 0009   2.129 1 S
 0009   1.157 1 P
 CT21   1.801 1 P
 TK10   1.489 1 P
 CT02   4.105 1 S
 CT02   2.341 1 P
 CT06   1.689 1 P
 CT06   3.097 1 S
N.KSBH   5.959 1 S
 CT04   3.417 1 S
 CT04   1.905 1 P
 CT08   2.297 1 S
 CT08   1.225 1 P
 TK15   1.339 1 P
 CT05   1.481 1 P
 CT05   2.769 1 S
KU.TKED   0.933 1 P
KU.TKED   1.681 1 S
# 2016 10 26 01 31 13.541 35.3879 133.8847   6.536  0.00 0 0 0    195
 CT06   1.115 1 P
 CT06   1.931 1 S
 CT04   1.259 1 P
 CT04   2.115 1 S
 TK05   1.669 1 P
 0001   3.091 1 S
 0001   1.819 1 P
 CT05   2.139 1 S
 CT05   1.247 1 P
 TK15   1.229 1 P
 CT08   1.203 1 P
 CT08   2.115 1 S
 TK01   1.789 1 P
 0016   1.507 1 P
 TK04   1.999 1 P
 0018   1.699 1 P
 0018   2.955 1 S
 0009   2.019 1 S
 0009   1.155 1 P
 TK10   1.089 1 P
 TK16   1.249 1 P
 CT21   2.283 1 S
 CT21   1.247 1 P
 CT02   2.427 1 S
 CT02   1.443 1 P
# 2016 10 26 01 31 24.312 35.3776 133.7214   2.900  0.00 0 0 0    196
N.MZKH   4.018 1 P
N.MZKH   6.778 1 S
 0019   2.116 1 P
 0019   3.824 1 S
 0011   1.068 1 P
 0011   1.928 1 S
 TK03   2.838 1 P
 0013   6.560 1 S
KU.TUFP   1.936 1 P
KU.TUFP   3.456 1 S
 0007   1.672 1 P
 0007   3.032 1 S
 0009   2.784 1 P
 CT10   6.784 1 S
 CT08   4.584 1 S
 TK10   2.748 1 P
 TK15   2.218 1 P
 CT06   2.664 1 P
 CT04   2.592 1 P
 0003   2.148 1 P
 TK05   2.238 1 P
 0001   3.840 1 S
 0001   2.140 1 P
N.SKGH   1.378 1 S
N.SKGH   0.828 1 P
# 2016 10 26 01 31 36.962 35.4501 133.8192   5.500  0.00 0 0 0    197
 0007   1.150 1 P
 0007   2.162 1 S
 0011   2.842 1 S
 0019   1.102 1 P
 0019   1.850 1 S
 0020   1.790 1 S
 TK03   1.288 1 P
 TK04   1.208 1 P
 0018   2.366 1 S
 0018   1.414 1 P
 TK01   0.958 1 P
 0009   1.670 1 P
KU.TKED   2.246 1 S
 CT08   2.890 1 S
KU.TUFP   1.006 1 P
KU.TUFP   1.662 1 S
# 2016 10 26 01 32 32.574 35.4076 133.8509   6.100  0.00 0 0 0    198
 0003   1.482 1 P
 0003   2.558 1 S
 TK05   1.746 1 P
 0001   1.882 1 P
KU.TKED   0.974 1 P
KU.TKED   1.666 1 S
N.SKGH   2.216 1 P
N.SKGH   3.826 1 S
 0007   2.146 1 S
 0007   1.202 1 P
 0011   3.326 1 S
 0011   1.894 1 P
KU.TUFP   1.074 1 P
 0019   3.034 1 S
 0019   1.714 1 P
 0020   2.866 1 S
 0020   1.570 1 P
 TK01   1.226 1 P
KU.TKYD   1.010 1 P
KU.TKYD   2.098 1 S
 TK03   1.656 1 P
 TK04   1.506 1 P
 0016   1.102 1 P
 0016   1.986 1 S
 0018   1.418 1 P
 0018   2.510 1 S
 0013   1.806 1 P
 0013   3.210 1 S
 0009   1.154 1 P
 0009   2.010 1 S
 TK16   1.646 1 P
 TK10   1.266 1 P
 CT06   1.310 1 P
 CT02   3.274 1 S
 CT02   1.886 1 P
 CT08   1.050 1 P
 CT08   1.826 1 S
 CT04   2.634 1 S
 CT04   1.482 1 P
 TK15   1.076 1 P
 CT05   1.182 1 P
 CT05   2.114 1 S
# 2016 10 26 01 32 37.802 35.3589 133.8688   9.629  0.00 0 0 0    199
N.YBRH   5.028 1 P
 TK05   1.768 1 P
 0001   3.126 1 S
 0001   1.858 1 P
 0003   2.850 1 S
N.SKGH   4.358 1 S
 0011   4.582 1 S
 0011   2.622 1 P
 0007   3.686 1 S
 0020   4.774 1 S
 TK01   2.338 1 P
 TK04   2.558 1 P
 0018   2.378 1 P
 0018   4.062 1 S
 0009   3.294 1 S
 0013   2.554 1 P
 0013   4.446 1 S
 CT06   2.770 1 S
 CT21   3.518 1 S
 TK16   1.988 1 P
 CT10   3.806 1 S
 CT10   2.234 1 P
 CT04   2.726 1 S
 CT02   3.094 1 S
 CT02   1.814 1 P
N.KSBH   4.138 1 S
# 2016 10 26 01 33  5.009 35.4177 133.9039   6.300  0.00 0 0 0    200
 CT04   1.687 1 P
 CT04   2.887 1 S
 CT06   2.399 1 S
 TK10   1.211 1 P
 CT05   1.623 1 P
 CT05   2.759 1 S
 TK15   1.461 1 P
 CT08   1.383 1 P
 CT08   2.507 1 S
 0009   1.023 1 P
 0009   1.719 1 S
 TK04   1.721 1 P
 0018   2.391 1 S
 0018   1.351 1 P
 0013   2.327 1 S
 0013   1.295 1 P
 CT10   2.187 1 S
 CT10   1.319 1 P
 TK16   1.191 1 P
 CT21   2.351 1 S
# 2016 10 26 01 33 22.175 35.4345 133.8296   5.007  0.00 0 0 0    201
KU.TUFP   0.857 1 P
KU.TUFP   1.489 1 S
 0007   1.073 1 P
 0007   1.897 1 S
 0019   1.153 1 P
 0019   2.073 1 S
 0020   1.005 1 P
 0020   1.897 1 S
 TK03   1.125 1 P
 TK01   0.765 1 P
 TK04   1.025 1 P
 0018   2.013 1 S
 0018   1.249 1 P
 0013   3.165 1 S
 0013   1.789 1 P
 0016   1.533 1 S
 0016   0.873 1 P
 0009   2.505 1 S
 0009   1.361 1 P
 TK10   1.615 1 P
 CT08   1.297 1 P
 CT08   2.465 1 S
KU.TKED   1.777 1 S
# 2016 10 26 01 33 39.239 35.3975 133.9061   5.907  0.00 0 0 0    202
 CT02   1.489 1 P
 CT02   2.593 1 S
 CT04   1.353 1 P
 CT04   2.369 1 S
 TK05   1.831 1 P
 0001   1.973 1 P
 CT06   1.121 1 P
 CT06   2.041 1 S
 TK10   1.231 1 P
 CT05   2.329 1 S
 CT05   1.361 1 P
 TK15   1.331 1 P
 CT08   1.217 1 P
 CT08   2.313 1 S
 TK01   1.751 1 P
 0009   1.041 1 P
 0009   1.785 1 S
 TK04   1.981 1 P
 0018   2.689 1 S
 0018   1.609 1 P
 TK16   1.171 1 P
# 2016 10 26 01 34  4.884 35.4145 133.8319   3.100  0.00 0 0 0    203
 0001   1.740 1 P
 0001   3.208 1 S
 0007   0.632 1 P
 0007   1.300 1 S
KU.TUFP   0.460 1 P
KU.TUFP   0.868 1 S
 0019   1.224 1 P
 0019   2.332 1 S
 0020   1.128 1 P
 0020   2.280 1 S
 TK01   0.736 1 P
 TK03   1.356 1 P
 TK04   1.126 1 P
KU.TKYD   0.468 1 P
 0016   1.340 1 S
 0016   0.668 1 P
 0018   2.260 1 S
 0018   1.136 1 P
 0013   3.260 1 S
 0013   1.708 1 P
 0009   1.836 1 S
 0009   0.920 1 P
 CT10   1.928 1 P
KU.TKED   0.436 1 P
KU.TKED   0.808 1 S
 TK16   1.556 1 P
 TK10   1.116 1 P
 CT08   1.476 1 S
 CT08   0.724 1 P
 CT06   2.472 1 S
 CT06   1.192 1 P
 CT02   3.392 1 S
 CT02   1.928 1 P
 TK15   0.766 1 P
 CT04   1.384 1 P
 CT04   2.652 1 S
 CT05   0.956 1 P
 CT05   1.812 1 S
 TK05   1.606 1 P
# 2016 10 26 01 34 11.235 35.3945 133.7537   4.560  0.00 0 0 0    204
N.SKGH   0.995 1 P
N.SKGH   1.795 1 S
 0011   0.813 1 P
 0011   1.429 1 S
 0019   1.633 1 P
 0019   3.045 1 S
 0020   3.565 1 S
 TK03   2.335 1 P
KU.TUFP   1.397 1 P
KU.TUFP   2.473 1 S
 0007   1.161 1 P
 0007   2.149 1 S
 CT08   3.605 1 S
 TK16   2.925 1 P
 TK10   2.465 1 P
 TK15   1.865 1 P
 CT06   2.281 1 P
 CT05   1.869 1 P
 CT04   2.185 1 P
 0003   3.353 1 S
 0003   1.861 1 P
 TK05   2.005 1 P
 0001   2.021 1 P
 0001   3.517 1 S
# 2016 10 26 01 34 45.061 35.3841 133.8869   4.300  0.00 0 0 0    205
 CT04   0.907 1 P
 CT04   1.651 1 S
N.YBRH   9.319 1 S
 TK05   1.399 1 P
 0001   2.747 1 S
 0001   1.559 1 P
 CT06   0.683 1 P
 CT06   1.283 1 S
 0003   2.083 1 S
 0003   1.167 1 P
N.SKGH   2.509 1 P
N.SKGH   4.339 1 S
 CT05   0.851 1 P
 CT05   1.583 1 S
 0011   4.159 1 S
 0011   2.339 1 P
N.AKSH   4.559 1 P
 0007   2.851 1 S
 0007   1.559 1 P
 TK15   0.809 1 P
KU.TUFP   1.427 1 P
KU.TUFP   2.539 1 S
 CT08   0.771 1 P
 0019   2.219 1 P
 0019   4.011 1 S
KU.TKED   1.035 1 P
KU.TKED   2.095 1 S
KU.TKYD   1.219 1 P
KU.TKYD   2.359 1 S
 0020   2.007 1 P
 0020   3.795 1 S
 TK01   1.589 1 P
 0016   2.403 1 S
 0016   1.271 1 P
 TK03   2.039 1 P
 TK04   1.809 1 P
 0018   2.763 1 S
 0018   1.495 1 P
 0009   1.435 1 S
 0009   0.795 1 P
 0013   3.107 1 S
 0013   1.679 1 P
 TK10   0.639 1 P
 CT21   0.867 1 P
 CT21   1.795 1 S
 TK16   0.929 1 P
 CT10   2.355 1 S
 CT10   1.323 1 P
 CT02   2.067 1 S
 CT02   1.151 1 P
N.KSBH   3.949 1 S
N.KSBH   2.279 1 P
# 2016 10 26 01 35  8.091 35.4015 133.8855   5.849  0.00 0 0 0    206
 CT06   1.101 1 P
 CT06   1.981 1 S
 CT04   1.305 1 P
 CT04   2.277 1 S
 TK05   1.769 1 P
 0001   3.309 1 S
 0001   1.909 1 P
 CT05   2.137 1 S
 CT05   1.233 1 P
 TK15   1.199 1 P
 CT08   1.053 1 P
 CT08   1.937 1 S
 TK01   1.519 1 P
 TK04   1.709 1 P
 TK03   1.959 1 P
 0018   1.397 1 P
 0009   0.881 1 P
 0009   1.525 1 S
 0013   2.785 1 S
 TK16   1.109 1 P
 CT21   1.117 1 P
 CT21   2.053 1 S
 TK10   0.959 1 P
 CT02   2.621 1 S
 CT02   1.509 1 P
# 2016 10 26 01 35 27.608 35.3603 133.8723   4.300  0.00 0 0 0    207
 CT04   0.728 1 P
 CT04   1.188 1 S
 TK05   0.962 1 P
 0001   1.968 1 S
 0001   1.100 1 P
 CT05   1.440 1 S
 CT05   0.804 1 P
 TK15   0.972 1 P
 CT08   1.056 1 P
 CT08   1.948 1 S
 TK10   0.982 1 P
 CT06   1.448 1 S
 CT06   0.800 1 P
 TK16   1.292 1 P
# 2016 10 26 01 35 33.982 35.4155 133.8474   4.700  0.00 0 0 0    208
 0001   1.898 1 P
 0019   2.718 1 S
 TK01   0.888 1 P
 TK03   1.428 1 P
 TK04   1.218 1 P
 0018   1.162 1 P
 0018   2.138 1 S
 0009   1.682 1 S
 TK16   1.538 1 P
 TK10   1.118 1 P
 CT06   1.230 1 P
 CT06   2.398 1 S
 CT08   1.570 1 S
 CT04   2.618 1 S
 CT04   1.466 1 P
 TK15   0.878 1 P
# 2016 10 26 01 35 50.791 35.3985 133.7463   5.300  0.00 0 0 0    209
 0019   1.813 1 P
 0019   3.153 1 S
 0011   0.961 1 P
 0011   1.609 1 S
KU.TUFP   1.593 1 P
KU.TUFP   2.625 1 S
 0007   1.357 1 P
 0007   2.321 1 S
KU.TKED   3.397 1 S
 CT08   3.777 1 S
 CT08   2.153 1 P
 TK15   2.069 1 P
 CT04   2.393 1 P
 0003   3.489 1 S
 0003   2.045 1 P
 TK05   2.209 1 P
 0001   2.145 1 P
 0001   3.697 1 S
N.SKGH   1.999 1 S
N.SKGH   1.189 1 P
# 2016 10 26 01 36  5.067 35.3986 133.8972   6.165  0.00 0 0 0    210
 TK10   0.993 1 P
 CT06   1.941 1 S
 CT06   1.121 1 P
 CT04   1.365 1 P
 TK05   1.853 1 P
 0001   2.001 1 P
 0001   3.433 1 S
 0003   1.645 1 P
 CT05   2.309 1 S
 CT05   1.317 1 P
 TK15   1.233 1 P
 CT08   1.177 1 P
 CT08   2.385 1 S
 TK01   1.783 1 P
 0009   0.985 1 P
 0009   1.653 1 S
 TK04   1.903 1 P
 0018   2.621 1 S
 0018   1.565 1 P
 0013   2.865 1 S
 CT10   2.197 1 S
 CT10   1.301 1 P
 TK16   1.083 1 P
 CT21   1.093 1 P
 CT21   2.109 1 S
 CT02   1.493 1 P
 CT02   2.501 1 S
# 2016 10 26 01 36 22.738 35.3709 133.8667   4.300  0.00 0 0 0    211
 TK05   1.032 1 P
 0001   2.102 1 S
 0001   1.178 1 P
 CT05   0.650 1 P
 TK15   0.822 1 P
 CT08   0.878 1 P
 CT08   1.694 1 S
 TK10   0.872 1 P
 TK16   1.362 1 P
 CT06   0.670 1 P
 CT02   1.074 1 P
 CT02   1.854 1 S
 CT04   0.678 1 P
 CT04   1.178 1 S
# 2016 10 26 01 36 41.156 35.3973 133.8471   5.083  0.00 0 0 0    212
 TK05   1.454 1 P
 0001   2.804 1 S
 0001   1.588 1 P
N.SKGH   3.504 1 S
N.SKGH   2.014 1 P
 0011   3.260 1 S
 0011   1.752 1 P
 0007   1.884 1 S
 0007   1.020 1 P
KU.TUFP   1.636 1 S
KU.TUFP   0.916 1 P
 0019   3.196 1 S
 0019   1.672 1 P
 0020   3.028 1 S
 0020   1.580 1 P
 TK01   1.194 1 P
KU.TKYD   1.824 1 S
 TK03   1.754 1 P
 TK04   1.534 1 P
KU.TKED   1.404 1 S
KU.TKED   0.812 1 P
 0016   1.044 1 P
 0016   1.908 1 S
 0018   1.428 1 P
 0018   2.628 1 S
 0013   1.824 1 P
 0013   3.364 1 S
 0009   1.076 1 P
 0009   1.900 1 S
 CT08   1.460 1 S
 CT08   0.756 1 P
 TK16   1.484 1 P
 CT21   2.860 1 S
 CT21   1.404 1 P
 TK10   1.034 1 P
 TK15   0.774 1 P
 CT06   1.064 1 P
 CT06   1.968 1 S
 CT02   2.884 1 S
 CT02   1.632 1 P
 CT04   1.204 1 P
 CT04   2.132 1 S
 CT05   0.868 1 P
 CT05   1.588 1 S
N.KSBH   4.734 1 S
 0003   2.052 1 S
 0003   1.164 1 P
# 2016 10 26 01 36 56.585 35.3658 133.8711   4.814  0.00 0 0 0    213
 TK05   1.145 1 P
 0001   2.183 1 S
 0001   1.271 1 P
 0003   1.575 1 S
 0003   0.947 1 P
 CT05   0.851 1 P
 TK15   0.885 1 P
 CT08   1.027 1 P
 CT08   2.035 1 S
 TK10   0.965 1 P
 TK16   1.275 1 P
 CT04   1.367 1 S
 CT04   0.819 1 P
 CT02   1.095 1 P
# 2016 10 26 01 37 15.460 35.4303 133.9191   6.100  0.00 0 0 0    214
 TK16   1.300 1 P
 CT04   3.256 1 S
 CT04   1.900 1 P
 TK05   2.420 1 P
 CT05   1.844 1 P
 CT05   3.208 1 S
 CT08   1.616 1 P
 CT08   2.880 1 S
 0009   1.160 1 P
 0009   1.956 1 S
 TK01   1.770 1 P
 TK04   1.740 1 P
 0018   1.340 1 P
 0018   2.292 1 S
 TK03   1.870 1 P
 0013   2.060 1 S
 0013   1.164 1 P
 CT10   2.228 1 S
 CT10   1.276 1 P
# 2016 10 26 01 37 35.656 35.4408 133.8251   1.300  0.00 0 0 0    215
KU.TUFP   0.436 1 P
KU.TUFP   0.968 1 S
 0011   1.324 1 P
 0011   2.620 1 S
 0019   0.680 1 P
 0020   0.528 1 P
 TK03   0.774 1 P
 TK04   0.634 1 P
 0018   0.872 1 P
 0018   1.768 1 S
 0013   3.044 1 S
 TK01   0.334 1 P
 0016   1.140 1 S
 0016   0.480 1 P
 0009   2.144 1 S
 TK16   1.834 1 P
KU.TKED   1.380 1 S
