# 2016 10 26 00 28  8.069 35.3836 133.8674   6.005  0.00 0 0 0     59
 TK05   1.461 1 P
 0001   1.603 1 P
 0003   2.107 1 S
 0003   1.235 1 P
 CT05   1.019 1 P
 CT05   1.707 1 S
 0007   2.715 1 S
 0007   1.531 1 P
 TK15   1.011 1 P
KU.TUFP   2.463 1 S
KU.TUFP   1.439 1 P
KU.TKED   2.039 1 S
 CT08   0.963 1 P
 CT08   1.691 1 S
 0020   1.995 1 P
 0020   3.691 1 S
 TK01   1.621 1 P
 TK03   2.101 1 P
 TK04   1.901 1 P
 0016   2.519 1 S
 0018   2.891 1 S
 0018   1.663 1 P
 0009   1.107 1 P
 0009   1.939 1 S
 TK10   1.001 1 P
 CT10   2.883 1 S
 CT10   1.671 1 P
 TK16   1.341 1 P
 CT21   2.411 1 S
 CT21   1.315 1 P
 CT06   0.971 1 P
 CT06   1.767 1 S
 CT02   2.475 1 S
 CT02   1.435 1 P
 CT04   1.119 1 P
 CT04   1.895 1 S
# 2016 10 26 00 28 26.938 35.4047 133.9205   6.900  0.00 0 0 0     60
 CT21   1.270 1 P
 CT21   2.294 1 S
 CT02   1.710 1 P
 CT02   2.894 1 S
 CT04   1.702 1 P
 CT06   1.466 1 P
 CT06   2.606 1 S
 TK05   2.242 1 P
 TK10   1.302 1 P
 CT05   1.738 1 P
 CT05   3.038 1 S
 CT08   1.662 1 P
 CT08   2.886 1 S
KU.TKED   1.726 1 P
 0009   1.254 1 P
 0009   2.118 1 S
 0016   1.658 1 P
 TK01   1.992 1 P
 TK04   2.032 1 P
 0018   1.634 1 P
 0018   2.822 1 S
 0013   2.598 1 S
 CT10   1.926 1 S
 CT10   1.134 1 P
 TK16   1.182 1 P
# 2016 10 26 00 28 36.351 35.4330 133.8263   6.560  0.00 0 0 0     61
N.SKGH   2.229 1 P
N.SKGH   3.809 1 S
 0019   1.389 1 P
 0019   2.377 1 S
 0020   1.217 1 P
 0020   2.321 1 S
 TK03   1.449 1 P
 TK04   1.329 1 P
 TK01   1.119 1 P
 0018   2.425 1 S
 0018   1.425 1 P
 0013   3.369 1 S
 0016   2.041 1 S
 0009   2.625 1 S
 0009   1.489 1 P
 TK16   2.109 1 P
 TK10   1.729 1 P
 CT08   1.445 1 P
 CT06   1.837 1 P
 CT02   4.221 1 S
 CT02   2.417 1 P
 CT04   2.013 1 P
 TK05   2.219 1 P
KU.TUFP   1.121 1 P
KU.TUFP   1.913 1 S
# 2016 10 26 00 29  8.713 35.3652 133.8605   9.974  0.00 0 0 0     62
 TK05   1.857 1 P
 0003   2.911 1 S
 0003   1.771 1 P
N.SKGH   4.377 1 S
 0011   4.567 1 S
 CT05   2.919 1 S
 CT05   1.727 1 P
 0007   2.143 1 P
 0007   3.647 1 S
 0019   4.595 1 S
 TK15   1.787 1 P
KU.TKED   1.983 1 P
 TK01   2.357 1 P
 CT08   3.363 1 S
 CT08   1.803 1 P
 TK03   2.567 1 P
 TK04   2.707 1 P
 0016   3.651 1 S
 0018   2.407 1 P
 0018   3.983 1 S
 0009   1.835 1 P
 0009   3.235 1 S
 0013   4.431 1 S
 TK10   1.827 1 P
 CT06   1.731 1 P
 CT06   2.895 1 S
 CT21   2.027 1 P
 CT21   3.555 1 S
 TK16   2.037 1 P
 CT10   3.815 1 S
 CT02   3.183 1 S
 CT02   1.943 1 P
N.KSBH   2.617 1 P
N.KSBH   4.347 1 S
 CT04   1.723 1 P
 CT04   2.791 1 S
# 2016 10 26 00 29 58.829 35.3924 133.8498   9.048  0.00 0 0 0     63
 TK05   1.881 1 P
 0003   2.843 1 S
 0003   1.719 1 P
 0001   3.299 1 S
 0001   1.987 1 P
N.YBRH   8.931 1 S
N.SKGH   2.371 1 P
N.SKGH   4.001 1 S
KURAYO   1.661 1 P
 0011   3.867 1 S
 0011   2.227 1 P
N.AKSH   4.171 1 P
 0007   2.947 1 S
 0007   1.723 1 P
KU.TUFP   2.743 1 S
KU.TUFP   1.659 1 P
 0019   3.803 1 S
 0019   2.211 1 P
 0020   3.739 1 S
 0020   2.115 1 P
 TK01   1.831 1 P
KU.TKYD   1.651 1 P
KU.TKYD   2.971 1 S
KU.TKED   1.603 1 P
KU.TKED   2.795 1 S
 TK03   2.211 1 P
 TK04   2.051 1 P
 0016   1.731 1 P
 0016   2.971 1 S
 0018   1.947 1 P
 0018   3.371 1 S
 0013   2.259 1 P
 0013   3.915 1 S
 0009   1.691 1 P
 0009   2.875 1 S
 CT08   2.699 1 S
 CT08   1.595 1 P
 CT10   3.771 1 S
 CT10   2.227 1 P
 TK16   1.971 1 P
 TK10   1.691 1 P
 CT21   1.947 1 P
 TK15   1.591 1 P
 CT06   2.819 1 S
 CT06   1.659 1 P
 CT02   2.019 1 P
 CT02   3.419 1 S
 CT04   2.859 1 S
 CT04   1.715 1 P
N.KSBH   2.881 1 P
N.KSBH   4.881 1 S
 CT05   2.707 1 S
 CT05   1.579 1 P
# 2016 10 26 00 30 43.958 35.4127 133.8595   3.131  0.00 0 0 0     64
 TK05   1.602 1 P
 0003   2.438 1 S
 0003   1.254 1 P
 0001   1.734 1 P
N.SKGH   2.202 1 P
N.SKGH   3.942 1 S
KU.TKED   0.410 1 P
KU.TKED   0.778 1 S
 0007   2.050 1 S
 0007   0.958 1 P
 0011   1.770 1 P
KU.TUFP   0.746 1 P
 0019   2.842 1 S
 0019   1.522 1 P
KU.TKYD   0.506 1 P
KU.TKYD   1.050 1 S
 0020   1.298 1 P
 TK01   0.852 1 P
 TK03   1.442 1 P
 TK04   1.192 1 P
 0016   1.250 1 S
 0016   0.602 1 P
 0018   1.958 1 S
 0018   1.014 1 P
 0013   2.814 1 S
 0013   1.490 1 P
 0009   0.614 1 P
 0009   1.218 1 S
 CT10   1.570 1 P
 TK16   1.192 1 P
 CT21   1.142 1 P
 TK10   0.782 1 P
 CT02   1.638 1 P
 CT02   2.998 1 S
 CT06   0.934 1 P
 CT06   1.874 1 S
 CT04   1.210 1 P
 CT04   2.310 1 S
 CT08   0.514 1 P
 CT08   1.146 1 S
 TK15   0.602 1 P
 CT05   1.542 1 S
 CT05   0.778 1 P
# 2016 10 26 00 31  7.069 35.4187 133.9064   6.344  0.00 0 0 0     65
 CT21   1.315 1 P
 CT21   2.387 1 S
 CT02   1.831 1 P
 CT02   3.059 1 S
 CT04   1.715 1 P
 CT04   2.943 1 S
 CT06   1.439 1 P
 CT06   2.495 1 S
 TK10   1.241 1 P
 CT05   2.867 1 S
 CT05   1.655 1 P
 TK15   1.541 1 P
 CT08   1.435 1 P
 CT08   2.523 1 S
 0009   1.051 1 P
 0009   1.715 1 S
 TK01   1.691 1 P
 TK04   1.751 1 P
 0018   1.371 1 P
 0018   2.331 1 S
 0013   1.323 1 P
 0013   2.303 1 S
 CT10   1.331 1 P
 CT10   2.299 1 S
 TK16   1.251 1 P
# 2016 10 26 00 31 37.780 35.4241 133.8360   6.100  0.00 0 0 0     66
 0001   2.108 1 P
 0001   3.668 1 S
N.SKGH   2.170 1 P
N.SKGH   3.760 1 S
 0007   1.116 1 P
 0007   1.932 1 S
 0011   1.724 1 P
 0011   3.016 1 S
KU.TUFP   0.968 1 P
KU.TUFP   1.644 1 S
N.AKSH   3.680 1 P
N.AKSH   6.170 1 S
 0019   1.404 1 P
 0019   2.500 1 S
 0020   1.300 1 P
 0020   2.436 1 S
 TK01   1.080 1 P
 TK03   1.440 1 P
 TK04   1.290 1 P
 0018   2.292 1 S
 0018   1.344 1 P
 0016   1.868 1 S
 0016   1.056 1 P
 0013   3.236 1 S
 0013   1.824 1 P
KU.TKYD   1.804 1 S
KU.TKYD   1.012 1 P
 CT10   3.788 1 S
 CT10   2.156 1 P
 0009   2.316 1 S
 0009   1.300 1 P
 TK16   1.890 1 P
 CT21   1.844 1 P
 TK10   1.530 1 P
 CT06   1.608 1 P
 CT06   2.852 1 S
 CT02   2.224 1 P
 CT02   3.828 1 S
 CT08   1.240 1 P
 CT08   2.412 1 S
KU.TKED   1.032 1 P
KU.TKED   1.856 1 S
N.KSBH   3.260 1 P
N.KSBH   5.540 1 S
 TK15   1.300 1 P
 CT04   3.116 1 S
 CT04   1.800 1 P
 CT05   2.612 1 S
 CT05   1.448 1 P
 0003   1.700 1 P
 0003   2.996 1 S
 TK05   1.980 1 P
# 2016 10 26 00 32 10.619 35.3908 133.8677   4.900  0.00 0 0 0     67
 TK05   1.351 1 P
 0001   2.637 1 S
 0001   1.485 1 P
 0003   1.965 1 S
 0003   1.125 1 P
 CT05   1.565 1 S
 CT05   0.885 1 P
 TK15   0.841 1 P
 0007   1.341 1 P
 0007   2.477 1 S
 CT08   0.809 1 P
 CT08   1.409 1 S
 TK01   1.421 1 P
 TK04   1.751 1 P
 0018   1.533 1 P
 0018   2.713 1 S
 TK16   1.291 1 P
 TK10   0.731 1 P
 CT06   0.869 1 P
 CT06   1.633 1 S
 CT02   1.357 1 P
 CT02   2.469 1 S
 CT04   1.029 1 P
 CT04   1.861 1 S
# 2016 10 26 00 32 32.646 35.4097 133.9078   6.691  0.00 0 0 0     68
 CT02   1.714 1 P
 CT04   2.810 1 S
 CT04   1.654 1 P
 CT06   2.450 1 S
 CT06   1.394 1 P
 TK10   1.214 1 P
 TK05   2.184 1 P
 CT08   1.398 1 P
 0009   1.142 1 P
 0009   1.866 1 S
KU.TUFP   1.962 1 P
 0019   2.194 1 P
 TK01   1.884 1 P
 TK04   1.864 1 P
 TK03   2.094 1 P
 0018   1.570 1 P
 0018   2.738 1 S
 0013   2.538 1 S
 CT10   1.386 1 P
 TK16   1.124 1 P
 CT21   2.278 1 S
# 2016 10 26 00 32 49.345 35.3680 133.8685   4.900  0.00 0 0 0     69
 TK05   1.135 1 P
 0001   2.199 1 S
 0001   1.271 1 P
 0003   1.583 1 S
 0003   0.931 1 P
 CT05   1.463 1 S
 CT05   0.831 1 P
 TK15   0.955 1 P
 TK01   1.875 1 P
 CT08   1.879 1 S
 CT08   1.007 1 P
 TK04   2.145 1 P
 0018   1.907 1 P
 TK10   0.975 1 P
 TK16   1.235 1 P
 CT06   1.467 1 S
 CT02   2.023 1 S
 CT02   1.143 1 P
N.KSBH   3.645 1 S
 CT04   1.399 1 S
# 2016 10 26 00 33 35.266 35.3936 133.8241   4.100  0.00 0 0 0     70
KURAYO   0.704 1 S
N.SKGH   1.644 1 P
N.SKGH   2.894 1 S
 0011   1.442 1 P
 0011   2.646 1 S
 0007   0.774 1 P
 0007   1.494 1 S
 0019   1.542 1 P
 0019   2.842 1 S
KU.TUFP   1.434 1 S
 TK03   1.744 1 P
 TK04   1.594 1 P
 0018   1.590 1 P
 0018   2.854 1 S
KU.TKED   1.530 1 S
KU.TKED   0.802 1 P
 0009   1.238 1 P
 0009   2.326 1 S
 CT08   0.910 1 P
 CT08   1.830 1 S
 TK16   1.734 1 P
 TK15   0.844 1 P
 CT06   1.202 1 P
 CT06   2.438 1 S
 CT05   0.878 1 P
 CT05   1.598 1 S
 CT02   1.726 1 P
 CT02   3.214 1 S
 CT04   1.246 1 P
N.KSBH   4.854 1 S
N.KSBH   2.764 1 P
 0003   1.070 1 P
 0003   2.074 1 S
 TK05   1.354 1 P
 0001   2.670 1 S
 0001   1.478 1 P
# 2016 10 26 00 34 31.745 35.3550 133.7467   3.947  0.00 0 0 0     71
N.SKGH   0.785 1 P
N.SKGH   1.295 1 S
 0011   1.355 1 P
 0011   2.251 1 S
 TK03   3.165 1 P
 TK04   3.025 1 P
 TK01   2.785 1 P
KU.TUFP   3.303 1 S
KU.TUFP   1.895 1 P
 TK15   2.115 1 P
 TK10   2.645 1 P
 CT04   3.543 1 S
 CT02   4.083 1 S
 TK05   1.935 1 P
 0001   1.815 1 P
 0001   3.111 1 S
# 2016 10 26 00 35 35.391 35.4430 133.8156   3.526  0.00 0 0 0     72
KU.TUFP   0.681 1 P
KU.TUFP   1.361 1 S
 0007   1.697 1 S
N.SKGH   3.649 1 S
 0011   2.349 1 S
 0019   1.281 1 S
 0020   0.609 1 P
 0020   1.361 1 S
 TK03   0.929 1 P
 TK04   0.859 1 P
 0018   2.117 1 S
 0018   1.205 1 P
 0013   3.321 1 S
 TK01   0.649 1 P
 0016   1.729 1 S
 TK15   1.429 1 P
 TK05   2.279 1 P
# 2016 10 26 00 35 47.294 35.3943 133.8753   5.100  0.00 0 0 0     73
 CT06   0.890 1 P
 CT06   1.554 1 S
 CT04   1.114 1 P
 CT04   1.918 1 S
 TK05   1.516 1 P
 0001   2.898 1 S
 0001   1.650 1 P
 0003   2.138 1 S
 0003   1.266 1 P
 CT05   1.502 1 S
 CT05   0.922 1 P
 TK15   0.816 1 P
N.SKGH   4.146 1 S
 CT08   1.398 1 S
 CT08   0.782 1 P
 0007   1.418 1 P
 0007   2.538 1 S
KU.TUFP   1.290 1 P
KU.TUFP   2.282 1 S
 TK01   1.346 1 P
 0020   3.482 1 S
 0020   1.874 1 P
 0016   2.142 1 S
 0016   1.182 1 P
 TK04   1.386 1 P
 TK03   1.946 1 P
 0009   1.630 1 S
 0009   0.906 1 P
 TK16   1.096 1 P
 CT21   1.178 1 P
 CT21   2.202 1 S
 TK10   0.876 1 P
 CT02   2.562 1 S
 CT02   1.470 1 P
# 2016 10 26 00 36  3.656 35.3969 133.8832   5.954  0.00 0 0 0     74
 CT04   1.272 1 P
 CT04   2.208 1 S
 CT06   1.080 1 P
 CT06   1.912 1 S
 TK10   0.974 1 P
 TK05   1.674 1 P
 0001   1.812 1 P
 0001   3.168 1 S
 0003   1.448 1 P
 0003   2.480 1 S
 CT05   1.200 1 P
 CT05   2.112 1 S
N.SKGH   4.474 1 S
 TK15   1.074 1 P
 CT08   1.028 1 P
 CT08   1.668 1 S
 0007   2.804 1 S
KU.TKED   1.152 1 P
 0019   3.728 1 S
 TK01   1.554 1 P
 0016   2.240 1 S
 0016   1.280 1 P
 TK04   1.764 1 P
 TK03   2.194 1 P
 0009   1.728 1 S
 0009   0.984 1 P
 0018   2.552 1 S
 0018   1.488 1 P
 0013   3.016 1 S
 0013   1.672 1 P
 TK16   1.214 1 P
 CT21   2.256 1 S
 CT21   1.208 1 P
N.KSBH   2.564 1 P
N.KSBH   4.344 1 S
 CT02   2.616 1 S
 CT02   1.492 1 P
# 2016 10 26 00 36 22.538 35.3914 133.8453   7.151  0.00 0 0 0     75
 TK05   1.612 1 P
 0003   2.366 1 S
 0003   1.398 1 P
 0001   2.926 1 S
 0001   1.734 1 P
N.SKGH   3.732 1 S
KURAYO   2.272 1 S
 0007   2.478 1 S
 0007   1.430 1 P
KU.TUFP   2.278 1 S
KU.TUFP   1.330 1 P
 0019   3.558 1 S
 0019   2.014 1 P
 0020   3.526 1 S
 0020   1.918 1 P
 TK01   1.602 1 P
KU.TKED   2.098 1 S
 TK03   2.062 1 P
 TK04   1.882 1 P
 0016   1.462 1 P
 0016   2.482 1 S
 0018   1.774 1 P
 0018   3.102 1 S
 0013   2.130 1 P
 0013   3.702 1 S
 CT08   2.094 1 S
 CT08   1.214 1 P
 0009   1.410 1 P
 0009   2.398 1 S
 TK15   1.192 1 P
 CT10   2.046 1 P
 CT10   3.410 1 S
 TK10   1.372 1 P
 TK16   1.742 1 P
 CT21   3.102 1 S
 CT21   1.726 1 P
 CT06   1.342 1 P
 CT06   2.478 1 S
 CT02   2.990 1 S
 CT02   1.778 1 P
 CT04   1.402 1 P
 CT04   2.382 1 S
N.KSBH   4.612 1 S
 CT05   2.166 1 S
 CT05   1.214 1 P
# 2016 10 26 00 37 34.969 35.3678 133.8672   7.018  0.00 0 0 0     76
N.YBRH   8.691 1 S
 TK05   1.451 1 P
 0001   2.607 1 S
 0001   1.567 1 P
 0003   2.119 1 S
 0003   1.299 1 P
N.SKGH   2.391 1 P
N.SKGH   3.981 1 S
KURAYO   1.471 1 P
KURAYO   2.551 1 S
 0011   4.079 1 S
 0011   2.359 1 P
N.AKSH   4.491 1 P
 0007   2.975 1 S
 0007   1.719 1 P
 CT05   2.015 1 S
 CT05   1.199 1 P
KU.TUFP   2.831 1 S
KU.TUFP   1.675 1 P
 0019   4.171 1 S
 0019   2.395 1 P
 TK15   1.261 1 P
KU.TKED   1.471 1 P
KU.TKED   2.623 1 S
 0020   2.287 1 P
 0020   4.079 1 S
KU.TKYD   1.611 1 P
KU.TKYD   2.943 1 S
 TK01   1.921 1 P
 CT08   2.463 1 S
 CT08   1.295 1 P
 TK03   2.381 1 P
 TK04   2.191 1 P
 0016   3.055 1 S
 0016   1.711 1 P
 0018   3.503 1 S
 0018   2.019 1 P
 0009   2.503 1 S
 0009   1.479 1 P
 0013   3.927 1 S
 0013   2.251 1 P
 TK10   1.321 1 P
 CT06   1.223 1 P
 CT06   2.047 1 S
 CT21   1.575 1 P
 CT21   2.815 1 S
 TK16   1.591 1 P
 CT10   3.279 1 S
 CT10   1.915 1 P
 CT02   2.559 1 S
 CT02   1.499 1 P
N.KSBH   4.011 1 S
N.KSBH   2.381 1 P
 CT04   1.999 1 S
 CT04   1.231 1 P
# 2016 10 26 00 38  6.440 35.4531 133.8295  10.740  0.00 0 0 0     77
KU.TUFP   1.928 1 P
KU.TUFP   3.248 1 S
 0007   3.540 1 S
N.SKGH   4.720 1 S
 0011   2.372 1 P
 0011   4.008 1 S
 TK04   1.990 1 P
 0013   3.920 1 S
 0018   3.360 1 S
 TK16   2.660 1 P
 0016   3.360 1 S
 0016   1.916 1 P
 TK10   2.440 1 P
 TK01   1.920 1 P
 CT04   2.688 1 P
 CT04   4.600 1 S
 TK15   2.280 1 P
 CT05   4.200 1 S
 CT05   2.368 1 P
 TK05   2.820 1 P
# 2016 10 26 00 38 48.592 35.4501 133.8192   5.300  0.00 0 0 0     78
 0007   1.120 1 P
 0007   1.976 1 S
N.SKGH   3.848 1 S
 0011   1.656 1 P
 0011   2.800 1 S
N.AKSH   3.278 1 P
N.AKSH   5.808 1 S
 0019   1.016 1 P
 0019   1.816 1 S
 0020   0.964 1 P
 0020   1.776 1 S
 TK03   1.198 1 P
 TK04   1.118 1 P
 0013   1.932 1 P
 0013   3.352 1 S
 0018   1.340 1 P
 0018   2.312 1 S
 TK01   0.928 1 P
 0016   1.928 1 S
 0016   1.096 1 P
 0009   2.800 1 S
 0009   1.600 1 P
 TK16   2.268 1 P
KU.TKYD   2.160 1 S
 TK10   1.868 1 P
KU.TKED   1.220 1 P
KU.TKED   2.220 1 S
 CT06   3.744 1 S
 CT06   2.008 1 P
 CT08   2.844 1 S
 CT08   1.560 1 P
 CT02   4.672 1 S
 CT02   2.640 1 P
 TK15   1.568 1 P
KU.TUFP   0.972 1 P
KU.TUFP   1.648 1 S
 TK05   2.378 1 P
 0001   4.352 1 S
 0001   2.520 1 P
# 2016 10 26 00 39 18.804 35.4296 133.9254   7.012  0.00 0 0 0     79
 CT02   2.104 1 P
 CT02   3.588 1 S
 CT21   1.528 1 P
 CT21   2.732 1 S
 CT04   2.028 1 P
 CT04   3.472 1 S
 CT06   1.764 1 P
 CT06   3.068 1 S
 TK05   2.526 1 P
 0001   4.556 1 S
 0001   2.676 1 P
 0003   3.908 1 S
 0003   2.312 1 P
 CT05   3.448 1 S
 CT05   1.968 1 P
 CT08   3.108 1 S
 0009   2.268 1 S
 0009   1.440 1 P
N.SKGH   5.856 1 S
N.SKGH   3.426 1 P
 0007   3.852 1 S
KU.TKYD   1.868 1 P
KU.TKYD   3.096 1 S
KU.TUFP   2.052 1 P
KU.TUFP   3.592 1 S
 0016   2.772 1 S
 0016   1.632 1 P
N.AKSH   5.026 1 P
N.AKSH   8.476 1 S
 TK01   1.896 1 P
 0019   2.516 1 P
 0019   4.420 1 S
 0020   2.152 1 P
 0020   3.836 1 S
 TK04   1.886 1 P
 0018   2.532 1 S
 0018   1.524 1 P
 TK03   2.116 1 P
 0013   1.300 1 P
 0013   2.260 1 S
 CT10   2.388 1 S
 CT10   1.412 1 P
N.KSBH   5.306 1 S
N.KSBH   3.076 1 P
# 2016 10 26 00 39 44.523 35.3808 133.7422   5.100  0.00 0 0 0     80
N.SKGH   0.887 1 P
N.SKGH   1.597 1 S
N.YBRH   4.337 1 P
N.YBRH   7.447 1 S
N.MZKH   4.237 1 P
N.MZKH   7.197 1 S
N.AKSH   2.727 1 P
 0011   1.045 1 P
 0011   1.877 1 S
 0019   1.977 1 P
 0019   3.557 1 S
KU.TUFP   1.717 1 P
KU.TUFP   3.089 1 S
 0007   1.485 1 P
 0007   2.701 1 S
 CT08   4.001 1 S
 TK16   3.107 1 P
 TK15   2.137 1 P
 CT05   2.085 1 P
 CT06   2.445 1 P
 CT04   2.321 1 P
 CT02   2.821 1 P
 CT02   5.025 1 S
 0003   1.961 1 P
 0003   3.393 1 S
 TK05   2.067 1 P
 0001   3.501 1 S
 0001   1.993 1 P
N.KSBH   3.617 1 P
# 2016 10 26 00 39 50.760 35.4450 133.8158   4.917  0.00 0 0 0     81
 0007   1.068 1 P
 0007   1.928 1 S
N.SKGH   3.810 1 S
 0019   0.972 1 P
 0019   1.744 1 S
 0020   0.912 1 P
 0020   1.712 1 S
 TK03   1.150 1 P
 TK04   1.060 1 P
 0018   1.276 1 P
 0018   2.248 1 S
 TK01   0.870 1 P
 0016   1.856 1 S
 0016   1.044 1 P
 0009   2.740 1 S
 0009   1.552 1 P
 TK16   2.230 1 P
KU.TKYD   1.112 1 P
KU.TKYD   1.888 1 S
 TK10   1.840 1 P
KU.TKED   1.180 1 P
 CT06   1.992 1 P
 CT08   2.752 1 S
 CT08   1.512 1 P
 CT02   4.628 1 S
 CT02   2.580 1 P
 TK15   1.570 1 P
 CT04   2.136 1 P
 CT05   1.696 1 P
 0003   2.000 1 P
 0003   3.696 1 S
KU.TUFP   0.912 1 P
KU.TUFP   1.592 1 S
 TK05   2.310 1 P
 0001   4.272 1 S
 0001   2.472 1 P
# 2016 10 26 00 40  4.799 35.3894 133.8411   6.500  0.00 0 0 0     82
 0001   1.637 1 P
 0001   2.793 1 S
KURAYO   1.191 1 P
KURAYO   2.081 1 S
N.SKGH   2.081 1 P
N.SKGH   3.561 1 S
 0011   1.913 1 P
N.AKSH   4.031 1 P
 0007   2.273 1 S
 0007   1.293 1 P
 0019   1.917 1 P
 0019   3.401 1 S
KU.TUFP   2.089 1 S
KU.TUFP   1.237 1 P
 0020   1.841 1 P
 0020   3.353 1 S
 TK01   1.521 1 P
 TK03   2.001 1 P
 TK04   1.801 1 P
KU.TKYD   2.181 1 S
 0016   2.409 1 S
 0016   1.381 1 P
 0018   3.033 1 S
 0018   1.725 1 P
KU.TKED   2.009 1 S
KU.TKED   1.169 1 P
 0013   3.761 1 S
 0013   2.081 1 P
 0009   1.357 1 P
 0009   2.361 1 S
 CT10   2.057 1 P
 CT10   3.549 1 S
 CT08   1.117 1 P
 CT08   2.049 1 S
 TK16   1.711 1 P
 CT21   3.097 1 S
 CT21   1.717 1 P
 TK10   1.321 1 P
 TK15   1.131 1 P
 CT06   2.217 1 S
 CT06   1.273 1 P
 CT02   2.921 1 S
 CT02   1.725 1 P
 CT05   2.001 1 S
 CT05   1.129 1 P
 CT04   2.225 1 S
 CT04   1.333 1 P
N.KSBH   2.711 1 P
N.KSBH   4.671 1 S
 0003   2.225 1 S
 0003   1.297 1 P
 TK05   1.511 1 P
# 2016 10 26 00 40 13.066 35.4329 133.9178   7.100  0.00 0 0 0     83
 TK16   1.494 1 P
 CT21   2.910 1 S
 CT21   1.570 1 P
 CT02   2.110 1 P
 CT04   2.030 1 P
 CT04   3.430 1 S
 CT06   1.742 1 P
 CT06   3.006 1 S
 TK10   1.554 1 P
 TK05   2.534 1 P
 0001   4.466 1 S
 0003   3.854 1 S
 CT05   1.978 1 P
 CT05   3.374 1 S
 CT08   3.058 1 S
 0009   2.174 1 S
 0009   1.334 1 P
KU.TUFP   2.086 1 P
 0016   2.734 1 S
 0016   1.622 1 P
 TK01   1.894 1 P
 0018   1.478 1 P
 0018   2.462 1 S
 TK04   1.874 1 P
 0013   2.230 1 S
 0013   1.314 1 P
 CT10   2.446 1 S
 CT10   1.422 1 P
# 2016 10 26 00 40 30.281 35.3448 133.7208   3.907  0.00 0 0 0     84
N.AKSH   2.839 1 P
N.AKSH   5.019 1 S
 TK01   2.929 1 P
N.SKGH   1.669 1 S
N.SKGH   0.889 1 P
KU.TUFP   2.631 1 P
 0007   3.667 1 S
 0018   6.123 1 S
 0009   5.319 1 S
 TK15   2.539 1 P
 TK10   3.179 1 P
 CT05   2.563 1 P
 CT04   2.655 1 P
 0003   2.239 1 P
 0003   3.611 1 S
 CT02   3.103 1 P
 TK05   2.159 1 P
 0001   2.047 1 P
# 2016 10 26 00 40 47.655 35.3878 133.8826   7.146  0.00 0 0 0     85
 CT06   1.209 1 P
 CT06   2.097 1 S
 CT04   1.353 1 P
 CT04   2.281 1 S
 TK05   1.735 1 P
 0001   3.161 1 S
 0001   1.865 1 P
 0003   2.489 1 S
 0003   1.521 1 P
 CT05   2.261 1 S
 CT05   1.313 1 P
 TK15   1.285 1 P
 CT08   1.257 1 P
 0019   2.409 1 P
 0019   4.225 1 S
 TK01   1.815 1 P
 TK04   1.985 1 P
 0018   1.729 1 P
 0018   2.929 1 S
 0009   2.185 1 S
 TK10   1.295 1 P
 TK16   1.385 1 P
 CT21   2.513 1 S
 CT21   1.397 1 P
N.KSBH   4.265 1 S
N.KSBH   2.525 1 P
 CT02   2.617 1 S
 CT02   1.553 1 P
# 2016 10 26 00 40 58.748 35.4088 133.8857   6.859  0.00 0 0 0     86
 CT04   1.484 1 P
 CT04   2.596 1 S
 TK05   1.932 1 P
 0001   3.580 1 S
 0001   2.076 1 P
 0003   2.944 1 S
 CT05   1.396 1 P
 CT05   2.528 1 S
 TK01   1.522 1 P
 0018   1.404 1 P
 0018   2.476 1 S
 0013   1.844 1 P
 0013   2.588 1 S
 CT10   2.588 1 S
 CT21   2.368 1 S
 CT06   2.252 1 S
# 2016 10 26 00 41  8.444 35.3852 133.8791   3.114  0.00 0 0 0     87
 CT06   0.544 1 P
 CT06   1.004 1 S
 CT04   0.736 1 P
 TK05   1.216 1 P
 0003   1.740 1 S
 0003   0.936 1 P
 CT05   1.156 1 S
 CT05   0.628 1 P
 TK15   0.606 1 P
 CT08   0.624 1 P
 CT08   1.176 1 S
 0016   2.176 1 S
 CT02   2.016 1 S
# 2016 10 26 00 42 36.756 35.4466 133.8176   5.700  0.00 0 0 0     88
 0007   1.164 1 P
 0007   2.116 1 S
N.SKGH   2.274 1 P
N.SKGH   3.864 1 S
 0011   1.616 1 P
 0011   2.804 1 S
N.AKSH   3.394 1 P
N.AKSH   5.694 1 S
 0019   1.044 1 P
 0019   1.876 1 S
 0020   1.000 1 P
 0020   1.828 1 S
 TK03   1.224 1 P
 TK04   1.134 1 P
 0013   1.932 1 P
 0013   3.380 1 S
 0018   1.356 1 P
 0018   2.396 1 S
 TK01   0.964 1 P
 0016   2.012 1 S
 0016   1.132 1 P
 CT10   4.344 1 S
 CT10   2.508 1 P
 0009   2.796 1 S
 0009   1.620 1 P
 TK16   2.274 1 P
 CT21   2.240 1 P
KU.TKYD   2.052 1 S
KU.TKYD   1.132 1 P
 TK10   1.914 1 P
KU.TKED   1.268 1 P
KU.TKED   2.292 1 S
 CT06   2.040 1 P
 CT06   3.684 1 S
 CT08   1.592 1 P
 CT08   2.900 1 S
 CT02   2.660 1 P
 CT02   4.644 1 S
 TK15   1.634 1 P
 CT04   3.948 1 S
 CT04   2.192 1 P
N.KSBH   6.364 1 S
N.KSBH   3.724 1 P
 CT05   3.236 1 S
 CT05   1.768 1 P
 0003   2.080 1 P
 0003   3.628 1 S
KU.TUFP   1.748 1 S
KU.TUFP   1.020 1 P
 TK05   2.384 1 P
 0001   4.372 1 S
 0001   2.480 1 P
KURAYO   1.604 1 P
