# 2016 10 26 01 37 45.360 35.4501 133.8233   5.300  0.00 0 0 0    216
KU.TUFP   0.992 1 P
KU.TUFP   1.704 1 S
 0007   1.160 1 P
 0007   2.112 1 S
 0011   1.700 1 P
 0011   2.968 1 S
 0019   1.064 1 P
 0019   1.880 1 S
 0020   0.964 1 P
 0020   1.784 1 S
 TK03   1.170 1 P
 TK04   1.070 1 P
 0013   1.884 1 P
 0013   3.272 1 S
 0018   1.384 1 P
 0018   2.168 1 S
 TK16   2.230 1 P
 0016   1.808 1 S
 0016   1.044 1 P
 0009   2.712 1 S
 0009   1.564 1 P
 TK10   1.870 1 P
 TK01   0.910 1 P
 CT02   4.596 1 S
 CT06   1.976 1 P
 CT08   1.528 1 P
 CT08   2.888 1 S
 TK15   1.610 1 P
KU.TKED   2.064 1 S
KU.TKED   1.208 1 P
 CT05   1.796 1 P
 CT05   3.212 1 S
 TK05   2.410 1 P
 0001   4.360 1 S
 0001   2.504 1 P
# 2016 10 26 01 37 54.873 35.3764 133.8055   2.700  0.00 0 0 0    217
N.SKGH   2.247 1 S
 0011   1.231 1 P
 0019   1.791 1 P
 0019   3.391 1 S
 0007   1.471 1 S
 0007   0.687 1 P
KU.TUFP   1.855 1 S
KU.TUFP   0.967 1 P
 TK01   1.677 1 P
 0018   3.779 1 S
KU.TKED   2.031 1 S
KU.TKED   0.999 1 P
 CT08   1.027 1 P
 CT08   2.159 1 S
 TK15   0.937 1 P
 TK10   1.477 1 P
 TK16   2.037 1 P
 CT05   1.679 1 S
 CT05   0.859 1 P
 CT06   2.503 1 S
 CT06   1.295 1 P
 CT04   2.195 1 S
 CT04   1.199 1 P
 0003   0.799 1 P
 0003   1.575 1 S
 TK05   1.097 1 P
 0001   2.203 1 S
 0001   1.087 1 P
# 2016 10 26 01 38 18.834 35.4434 133.8217   7.100  0.00 0 0 0    218
KU.TUFP   1.246 1 P
KU.TUFP   2.102 1 S
 0007   1.334 1 P
 0007   2.550 1 S
N.SKGH   3.996 1 S
 0011   1.738 1 P
 0011   3.078 1 S
 0019   1.318 1 P
 0019   2.342 1 S
 TK03   1.446 1 P
 TK04   1.336 1 P
 0018   1.510 1 P
 0018   2.598 1 S
 0013   3.486 1 S
 TK01   1.256 1 P
 CT10   2.510 1 P
 0009   1.694 1 P
 0009   2.942 1 S
 TK16   2.286 1 P
 TK10   1.946 1 P
 CT06   2.058 1 P
 CT06   3.766 1 S
 CT08   1.678 1 P
 CT08   2.982 1 S
 CT02   2.630 1 P
 CT02   4.534 1 S
 CT04   2.254 1 P
 TK05   2.436 1 P
 0001   4.266 1 S
 0001   2.502 1 P
# 2016 10 26 01 39 10.961 35.3916 133.8874   5.594  0.00 0 0 0    219
 CT06   0.999 1 P
 CT06   1.707 1 S
 CT04   1.203 1 P
 CT04   2.031 1 S
 TK05   1.719 1 P
 TK10   0.879 1 P
 CT05   1.207 1 P
 CT05   2.007 1 S
 TK15   1.129 1 P
 CT08   1.067 1 P
 TK04   1.699 1 P
 TK16   1.149 1 P
 CT02   2.307 1 S
 CT02   1.399 1 P
# 2016 10 26 01 39 25.494 35.3714 133.8684   4.300  0.00 0 0 0    220
 TK05   1.086 1 P
 0001   2.162 1 S
 0001   1.230 1 P
 0003   1.402 1 S
 CT05   0.690 1 P
 CT05   1.186 1 S
 TK15   0.836 1 P
 CT08   1.754 1 S
 CT08   0.898 1 P
 TK10   0.846 1 P
 TK16   1.256 1 P
 CT02   1.802 1 S
 CT02   1.062 1 P
 CT04   1.174 1 S
 CT04   0.690 1 P
# 2016 10 26 01 39 34.499 35.4360 133.8682   2.700  0.00 0 0 0    221
 CT08   0.877 1 P
 CT08   2.001 1 S
 CT05   1.201 1 P
 CT05   2.405 1 S
 TK15   1.031 1 P
 TK05   2.051 1 P
 0003   1.725 1 P
 0003   3.205 1 S
 0001   2.197 1 P
 0001   3.973 1 S
KU.TKED   0.617 1 P
N.SKGH   2.571 1 P
KU.TKYD   0.521 1 P
KU.TKYD   1.061 1 S
 0007   1.153 1 P
 0007   2.205 1 S
KU.TUFP   0.877 1 P
KU.TUFP   1.713 1 S
 0011   1.993 1 P
 0011   3.765 1 S
 0016   0.309 1 P
 0016   0.649 1 S
 TK01   0.581 1 P
 0019   2.717 1 S
 0019   1.369 1 P
 0020   2.121 1 S
 0020   1.017 1 P
 TK04   0.761 1 P
 TK03   1.021 1 P
 0018   1.157 1 S
 0018   0.549 1 P
 0013   2.213 1 S
 0013   1.133 1 P
 CT10   1.577 1 P
 TK16   1.341 1 P
 CT21   1.333 1 P
 0009   0.609 1 P
 0009   1.237 1 S
 TK10   1.051 1 P
 CT02   1.961 1 P
 CT02   3.561 1 S
 CT06   2.621 1 S
 CT06   1.321 1 P
 CT04   3.029 1 S
 CT04   1.621 1 P
# 2016 10 26 01 39 52.135 35.4444 133.8436   2.300  0.00 0 0 0    222
 0001   2.217 1 P
 0001   4.265 1 S
KU.TUFP   0.641 1 P
KU.TUFP   1.301 1 S
 0007   0.889 1 P
 0007   1.809 1 S
N.SKGH   2.225 1 P
N.SKGH   4.225 1 S
 TK01   0.385 1 P
 0019   0.853 1 P
 0020   1.365 1 S
 0020   0.597 1 P
 TK03   0.735 1 P
 TK04   0.625 1 P
 TK16   1.715 1 P
 CT02   4.449 1 S
 CT02   2.389 1 P
 CT08   1.105 1 P
 CT04   1.817 1 P
 TK15   1.185 1 P
KU.TKED   0.745 1 P
 0003   2.025 1 P
 TK05   2.195 1 P
# 2016 10 26 01 40 11.493 35.3950 133.8544   7.133  0.00 0 0 0    223
 TK05   1.657 1 P
 0003   2.451 1 S
 0003   1.451 1 P
 0001   3.023 1 S
 0001   1.779 1 P
N.YBRH   8.997 1 S
KURAYO   1.367 1 P
KURAYO   2.377 1 S
N.SKGH   2.237 1 P
N.SKGH   3.767 1 S
 0011   3.587 1 S
 0011   2.035 1 P
 0007   2.499 1 S
 0007   1.427 1 P
N.AKSH   4.117 1 P
KU.TUFP   2.267 1 S
KU.TUFP   1.343 1 P
 0019   3.499 1 S
 0019   1.975 1 P
KU.TKED   2.139 1 S
KU.TKED   1.247 1 P
 0020   3.435 1 S
 0020   1.871 1 P
KU.TKYD   2.355 1 S
KU.TKYD   1.339 1 P
 TK01   1.547 1 P
 TK03   1.987 1 P
 TK04   1.807 1 P
 0016   1.419 1 P
 0016   2.483 1 S
 0018   1.675 1 P
 0018   2.907 1 S
 0013   2.039 1 P
 0013   3.579 1 S
 0009   1.407 1 P
 0009   2.355 1 S
 CT10   1.995 1 P
 TK16   1.717 1 P
 CT21   1.667 1 P
 TK10   1.387 1 P
 CT08   1.243 1 P
 CT08   2.115 1 S
 CT06   1.367 1 P
 CT06   2.387 1 S
 CT02   3.123 1 S
 CT02   1.807 1 P
N.KSBH   4.707 1 S
N.KSBH   2.757 1 P
 CT04   1.447 1 P
 CT04   2.483 1 S
 TK15   1.237 1 P
 CT05   2.215 1 S
 CT05   1.255 1 P
# 2016 10 26 01 41  8.101 35.4267 133.8389   4.889  0.00 0 0 0    224
KU.TUFP   0.867 1 P
KU.TUFP   1.411 1 S
 0007   1.083 1 P
 0007   1.975 1 S
 TK03   1.279 1 P
 TK01   0.859 1 P
 TK04   1.119 1 P
 0018   2.023 1 S
 0018   1.179 1 P
 0016   1.451 1 S
 0016   0.811 1 P
 0009   2.027 1 S
 0009   1.191 1 P
# 2016 10 26 01 41 22.327 35.3815 133.8508  10.115  0.00 0 0 0    225
 0003   1.825 1 P
 0003   3.033 1 S
 TK05   1.953 1 P
 0001   3.409 1 S
 0001   2.049 1 P
N.SKGH   4.213 1 S
N.SKGH   2.523 1 P
 0011   4.233 1 S
 0011   2.449 1 P
N.AKSH   4.003 1 P
 0007   3.473 1 S
 0007   1.989 1 P
 0019   4.257 1 S
 0019   2.477 1 P
KU.TUFP   3.173 1 S
 0020   4.197 1 S
 TK01   2.113 1 P
 TK03   2.483 1 P
 TK04   2.333 1 P
KU.TKED   1.841 1 P
KU.TKED   3.145 1 S
 0016   3.353 1 S
 0016   2.001 1 P
 0018   3.681 1 S
 0018   2.273 1 P
 CT08   3.041 1 S
 CT08   1.765 1 P
 0013   4.181 1 S
 0013   2.513 1 P
 0009   3.185 1 S
 0009   1.897 1 P
 TK15   1.773 1 P
 TK10   1.853 1 P
 CT10   4.001 1 S
 CT10   2.357 1 P
 TK16   2.113 1 P
 CT21   2.105 1 P
 CT21   3.705 1 S
 CT05   1.777 1 P
 CT05   2.961 1 S
 CT06   1.789 1 P
 CT06   3.041 1 S
 CT02   2.121 1 P
 CT02   3.529 1 S
 CT04   1.825 1 P
 CT04   3.025 1 S
N.KSBH   4.823 1 S
N.KSBH   2.883 1 P
# 2016 10 26 01 41 35.295 35.4515 133.8167   5.700  0.00 0 0 0    226
 0007   1.217 1 P
 0007   2.153 1 S
 0011   1.697 1 P
 0011   2.937 1 S
 0019   1.189 1 P
 0019   1.993 1 S
 TK03   1.285 1 P
 TK04   1.215 1 P
 0013   1.969 1 P
 0013   3.437 1 S
 0018   1.417 1 P
 0018   2.421 1 S
 0016   1.161 1 P
 TK16   2.315 1 P
 0009   1.665 1 P
 TK01   1.035 1 P
 TK10   1.965 1 P
 CT06   3.741 1 S
 CT06   2.121 1 P
 CT08   2.929 1 S
 CT08   1.629 1 P
KU.TKED   2.261 1 S
KU.TKED   1.361 1 P
 TK15   1.725 1 P
 TK05   2.485 1 P
 0001   4.393 1 S
 0001   2.589 1 P
KU.TUFP   1.801 1 S
KU.TUFP   1.089 1 P
# 2016 10 26 01 41 48.063 35.4063 133.8542   3.500  0.00 0 0 0    227
 TK15   0.627 1 P
 0007   1.885 1 S
 0007   0.997 1 P
KU.TKED   0.501 1 P
KU.TUFP   0.813 1 P
 TK01   1.117 1 P
 0009   0.769 1 P
 0009   1.477 1 S
 TK16   1.377 1 P
 TK10   0.877 1 P
 CT06   0.973 1 P
 CT06   1.829 1 S
 CT08   0.545 1 P
 CT08   1.057 1 S
# 2016 10 26 01 42 22.657 35.3750 133.8683   3.700  0.00 0 0 0    228
 TK05   1.093 1 P
 0003   1.467 1 S
 0003   0.827 1 P
 CT05   0.983 1 S
 CT05   0.539 1 P
 TK15   0.623 1 P
 CT08   0.695 1 P
 CT08   1.415 1 S
 TK10   0.723 1 P
 TK16   1.163 1 P
 CT06   0.555 1 P
 CT02   1.115 1 P
 CT02   1.959 1 S
 CT04   0.687 1 P
# 2016 10 26 01 42 46.502 35.4465 133.8178   5.527  0.00 0 0 0    229
 0007   1.158 1 P
 0007   2.070 1 S
 0011   1.658 1 P
 0011   2.866 1 S
 0019   1.106 1 P
 0019   1.978 1 S
 TK03   1.268 1 P
 TK04   1.158 1 P
 0013   1.938 1 P
 0013   3.362 1 S
 0018   1.362 1 P
 0018   2.370 1 S
 TK01   0.968 1 P
 0016   1.970 1 S
 0016   1.122 1 P
 0009   1.606 1 P
 TK10   1.908 1 P
KU.TKED   2.234 1 S
KU.TKED   1.242 1 P
 CT06   3.766 1 S
 CT06   2.002 1 P
 CT08   2.838 1 S
 CT08   1.562 1 P
 CT02   4.650 1 S
 CT02   2.646 1 P
 TK15   1.638 1 P
 CT04   2.166 1 P
 CT05   1.750 1 P
KU.TUFP   1.018 1 P
KU.TUFP   1.754 1 S
 TK05   2.358 1 P
 0001   2.494 1 P
KURAYO   1.588 1 P
# 2016 10 26 01 42 51.780 35.3919 133.8461   6.866  0.00 0 0 0    230
 0003   1.368 1 P
 0003   2.356 1 S
 TK05   1.570 1 P
 0001   2.900 1 S
 0001   1.708 1 P
KURAYO   2.190 1 S
KURAYO   1.310 1 P
N.SKGH   3.630 1 S
N.SKGH   2.200 1 P
 0011   1.984 1 P
 0007   1.364 1 P
 0007   2.372 1 S
KU.TUFP   1.292 1 P
KU.TUFP   2.180 1 S
 0019   3.444 1 S
 0019   1.956 1 P
 0020   3.412 1 S
 0020   1.876 1 P
 TK01   1.540 1 P
KU.TKYD   2.364 1 S
KU.TKYD   1.292 1 P
 TK03   2.000 1 P
KU.TKED   1.204 1 P
KU.TKED   2.068 1 S
 TK04   1.810 1 P
 0016   1.400 1 P
 0016   2.436 1 S
 0018   1.716 1 P
 0013   3.668 1 S
 0013   2.080 1 P
 0009   1.356 1 P
 0009   2.356 1 S
 CT08   1.168 1 P
 CT08   2.116 1 S
 CT10   2.020 1 P
 CT10   3.460 1 S
 TK16   1.730 1 P
 CT21   1.716 1 P
 TK10   1.360 1 P
 TK15   1.120 1 P
 CT06   1.324 1 P
 CT06   2.260 1 S
 CT02   1.780 1 P
 CT02   3.004 1 S
 CT04   1.384 1 P
 CT04   2.340 1 S
N.KSBH   4.640 1 S
 CT05   2.108 1 S
 CT05   1.180 1 P
# 2016 10 26 01 43  1.041 35.3869 133.8627   5.100  0.00 0 0 0    231
 TK05   1.349 1 P
 0001   2.607 1 S
 0001   1.483 1 P
 0003   1.927 1 S
 0003   1.107 1 P
 CT05   1.479 1 S
 CT05   0.831 1 P
 TK15   0.809 1 P
KURAYO   1.169 1 P
 0011   2.087 1 P
 0011   3.815 1 S
 0007   1.343 1 P
 0007   2.479 1 S
KU.TUFP   1.247 1 P
KU.TUFP   2.231 1 S
KU.TKED   0.979 1 P
KU.TKED   1.815 1 S
 CT08   1.455 1 S
 CT08   0.799 1 P
 TK01   1.459 1 P
 TK03   1.969 1 P
 TK04   1.749 1 P
 0016   2.295 1 S
 0016   1.219 1 P
 0018   2.723 1 S
 0018   1.543 1 P
 0013   3.339 1 S
 0013   1.951 1 P
 0009   1.791 1 S
 0009   1.015 1 P
 TK16   1.249 1 P
 TK10   0.899 1 P
 CT21   2.335 1 S
 CT21   1.191 1 P
 CT06   0.851 1 P
 CT06   1.591 1 S
 CT02   2.423 1 S
 CT02   1.351 1 P
 CT04   1.003 1 P
 CT04   1.839 1 S
# 2016 10 26 01 43 56.513 35.4431 133.8306   5.335  0.00 0 0 0    232
KU.TUFP   1.023 1 P
KU.TUFP   1.743 1 S
 0007   1.195 1 P
 0007   2.127 1 S
 0019   1.127 1 P
 0019   2.015 1 S
 TK03   1.147 1 P
 TK04   1.047 1 P
 0018   1.223 1 P
 0018   2.103 1 S
 TK01   0.907 1 P
 0016   1.815 1 S
 0016   1.003 1 P
KU.TKED   2.075 1 S
KU.TKED   1.191 1 P
 TK15   1.587 1 P
# 2016 10 26 01 44  9.284 35.4011 133.8803   6.089  0.00 0 0 0    233
 CT06   1.084 1 P
 CT06   1.976 1 S
 CT04   1.332 1 P
 CT04   2.284 1 S
 TK05   1.786 1 P
 0001   3.324 1 S
 0001   1.924 1 P
 0003   2.616 1 S
 0003   1.540 1 P
 CT05   2.212 1 S
 CT05   1.208 1 P
 TK15   1.106 1 P
 CT08   1.060 1 P
 CT08   1.872 1 S
 TK01   1.686 1 P
 0016   2.200 1 S
 TK04   1.696 1 P
 0018   1.452 1 P
 0018   2.444 1 S
 0009   1.620 1 S
 0009   0.932 1 P
 0013   2.820 1 S
 CT10   1.400 1 P
 TK16   1.166 1 P
 CT21   2.308 1 S
 CT21   1.172 1 P
 TK10   0.986 1 P
 CT02   1.532 1 P
 CT02   2.656 1 S
# 2016 10 26 01 44 15.221 35.3757 133.8728   3.500  0.00 0 0 0    234
 CT04   0.647 1 P
 CT04   1.179 1 S
 TK05   1.049 1 P
 0001   2.167 1 S
 CT06   0.571 1 P
 CT06   1.011 1 S
 0003   1.387 1 S
 0003   0.795 1 P
 CT05   0.531 1 P
 CT05   0.963 1 S
 0007   2.507 1 S
 TK15   0.609 1 P
 CT08   0.711 1 P
 CT08   1.427 1 S
KU.TKED   1.031 1 P
KU.TKED   2.071 1 S
 TK10   0.739 1 P
 CT02   1.931 1 S
 CT02   1.075 1 P
# 2016 10 26 01 44 22.583 35.4302 133.8329   4.700  0.00 0 0 0    235
KU.TUFP   0.761 1 P
KU.TUFP   1.445 1 S
 0007   1.801 1 S
N.SKGH   3.657 1 S
 0011   1.485 1 P
 0011   2.793 1 S
 0019   1.085 1 P
 0019   2.089 1 S
 0020   0.965 1 P
 0020   2.009 1 S
 TK03   1.137 1 P
 TK01   0.787 1 P
 TK04   1.007 1 P
 0018   2.033 1 S
 0013   3.013 1 S
 0016   1.637 1 S
 TK16   1.817 1 P
KU.TKYD   0.965 1 S
 CT06   1.573 1 P
 CT02   4.021 1 S
KU.TKED   1.721 1 S
 CT04   1.733 1 P
 0001   2.073 1 P
# 2016 10 26 01 44 33.722 35.4046 133.9149   5.300  0.00 0 0 0    236
 CT21   1.046 1 P
 CT02   1.510 1 P
 CT04   1.470 1 P
 CT06   1.210 1 P
 CT06   2.190 1 S
 TK05   2.008 1 P
 0001   3.710 1 S
 0001   2.158 1 P
 TK10   1.018 1 P
 0003   1.802 1 P
 0003   3.018 1 S
 CT05   1.462 1 P
 CT05   2.530 1 S
 TK15   1.408 1 P
 CT08   2.246 1 S
 CT08   1.298 1 P
KU.TKED   1.438 1 P
 0009   1.654 1 S
 0009   0.986 1 P
KU.TUFP   1.814 1 P
 0016   2.510 1 S
 0016   1.430 1 P
 TK01   1.758 1 P
 TK04   1.868 1 P
 0018   2.554 1 S
 0018   1.470 1 P
 0013   2.566 1 S
 0013   1.430 1 P
 CT10   1.814 1 S
 CT10   1.074 1 P
 TK16   0.988 1 P
# 2016 10 26 01 45  6.287 35.3681 133.7513   2.165  0.00 0 0 0    237
N.YBRH   7.313 1 S
N.SKGH   0.643 1 S
N.SKGH   0.323 1 P
N.MZKH   7.593 1 S
N.MZKH   4.463 1 P
 0011   1.009 1 P
 0011   1.925 1 S
 0019   2.049 1 P
 0019   3.565 1 S
 TK03   2.583 1 P
 TK04   2.803 1 P
 0007   2.569 1 S
 TK15   1.973 1 P
 TK10   2.443 1 P
 TK16   2.953 1 P
 0003   1.569 1 P
 CT02   2.529 1 P
 TK05   1.633 1 P
 0001   1.537 1 P
 0001   3.041 1 S
# 2016 10 26 01 45 36.274 35.3896 133.8385   3.542  0.00 0 0 0    238
 0007   0.910 1 P
 0007   1.710 1 S
KU.TUFP   0.870 1 P
KU.TUFP   1.558 1 S
 TK01   1.256 1 P
 TK03   1.856 1 P
 TK04   1.646 1 P
KU.TKED   1.290 1 S
KU.TKED   0.698 1 P
 0018   2.854 1 S
 0018   1.542 1 P
 CT08   1.206 1 S
 CT08   0.638 1 P
 TK16   1.476 1 P
 TK10   0.966 1 P
 TK15   0.586 1 P
 CT06   0.922 1 P
 CT06   1.914 1 S
 CT05   0.634 1 P
 CT02   1.502 1 P
 CT02   2.714 1 S
 CT04   1.018 1 P
 0003   0.938 1 P
 0003   1.674 1 S
 TK05   1.266 1 P
# 2016 10 26 01 45 49.303 35.3803 133.8448   2.100  0.00 0 0 0    239
 0003   0.545 1 P
 0003   1.137 1 S
 TK05   0.927 1 P
 0001   2.089 1 S
 0001   1.073 1 P
N.SKGH   3.417 1 S
N.SKGH   1.817 1 P
 0011   3.201 1 S
 0011   1.641 1 P
 0007   0.833 1 P
 0019   3.369 1 S
 0019   1.769 1 P
KU.TUFP   0.849 1 P
KU.TUFP   1.677 1 S
 0020   3.365 1 S
 TK01   1.297 1 P
KU.TKYD   0.873 1 P
 TK04   1.487 1 P
KU.TKED   0.617 1 P
KU.TKED   1.385 1 S
 0016   1.137 1 P
 0016   2.289 1 S
 0018   1.617 1 P
 0018   3.145 1 S
 CT08   0.385 1 P
 CT08   1.033 1 S
 0013   2.093 1 P
 0009   1.001 1 P
 TK15   0.257 1 P
 TK10   0.797 1 P
 CT10   1.837 1 P
 TK16   1.387 1 P
 CT21   1.273 1 P
 CT05   0.513 1 S
 CT05   0.213 1 P
 CT06   1.601 1 S
 CT06   0.617 1 P
 CT02   2.345 1 S
 CT02   1.217 1 P
 CT04   1.449 1 S
 CT04   0.657 1 P
N.KSBH   2.397 1 P
N.KSBH   4.247 1 S
# 2016 10 26 01 46 10.988 35.3900 133.8205   3.300  0.00 0 0 0    240
N.SKGH   1.532 1 P
N.SKGH   2.732 1 S
 0011   1.332 1 P
 0011   2.256 1 S
 0007   0.676 1 P
 0007   1.364 1 S
 0019   1.624 1 P
 0019   2.952 1 S
KU.TUFP   0.760 1 P
KU.TUFP   1.440 1 S
 0020   2.652 1 S
 TK03   1.792 1 P
 TK04   1.652 1 P
KU.TKYD   1.616 1 S
 0016   2.268 1 S
 0016   1.132 1 P
 0018   3.036 1 S
 0018   1.636 1 P
KU.TKED   0.732 1 P
KU.TKED   1.416 1 S
 0009   2.452 1 S
 TK16   1.742 1 P
 CT08   0.772 1 P
 CT08   1.556 1 S
 TK10   1.222 1 P
 TK15   0.712 1 P
 CT06   1.080 1 P
 CT06   2.308 1 S
 CT05   0.716 1 P
 CT05   1.372 1 S
 CT02   3.552 1 S
 CT02   1.612 1 P
 CT04   1.100 1 P
 0003   1.780 1 S
 0003   0.896 1 P
 TK05   1.212 1 P
 0001   1.316 1 P
 0001   2.436 1 S
# 2016 10 26 01 46 42.577 35.4044 133.8926   7.408  0.00 0 0 0    241
 TK10   1.223 1 P
 CT06   2.207 1 S
 CT06   1.371 1 P
 CT04   1.615 1 P
 TK05   2.073 1 P
 0001   2.207 1 P
 0001   3.567 1 S
 CT05   1.503 1 P
 TK15   1.403 1 P
 TK04   1.643 1 P
 0018   1.759 1 P
 0018   2.903 1 S
 TK16   1.423 1 P
 CT21   2.399 1 S
 CT21   1.395 1 P
 CT02   2.839 1 S
 CT02   1.823 1 P
# 2016 10 26 01 47 32.311 35.3603 133.8886   5.654  0.00 0 0 0    242
N.YBRH   8.879 1 S
 0001   1.505 1 P
 0001   2.513 1 S
 TK05   1.359 1 P
 0003   1.921 1 S
 0003   1.193 1 P
N.SKGH   2.549 1 P
N.SKGH   4.409 1 S
 CT04   0.993 1 P
 CT04   1.609 1 S
KURAYO   1.559 1 P
KURAYO   2.759 1 S
 0011   4.593 1 S
 0011   2.609 1 P
N.AKSH   4.829 1 P
 CT05   1.825 1 S
 CT05   1.077 1 P
 0007   3.305 1 S
 0007   1.893 1 P
 TK15   1.179 1 P
KU.TUFP   1.833 1 P
KU.TUFP   3.129 1 S
 0019   2.613 1 P
 0019   4.581 1 S
 CT08   1.205 1 P
 CT08   2.185 1 S
KU.TKED   1.497 1 P
KU.TKED   2.825 1 S
 CT06   0.973 1 P
 CT06   1.657 1 S
KU.TKYD   1.681 1 P
KU.TKYD   2.977 1 S
 0020   2.449 1 P
 0020   4.481 1 S
 TK01   2.029 1 P
 0016   3.105 1 S
 0016   1.769 1 P
 TK04   2.309 1 P
 TK03   2.509 1 P
 0018   3.465 1 S
 0018   2.029 1 P
 0009   2.249 1 S
 0009   1.345 1 P
 TK10   1.069 1 P
 0013   2.201 1 P
 0013   3.809 1 S
 CT21   1.273 1 P
 CT21   2.273 1 S
 TK16   1.289 1 P
 CT10   2.825 1 S
 CT10   1.625 1 P
 CT02   1.953 1 S
 CT02   1.173 1 P
N.KSBH   3.689 1 S
N.KSBH   2.119 1 P
# 2016 10 26 01 48  9.169 35.4180 133.8376   8.945  0.00 0 0 0    243
 0001   2.311 1 P
 0001   3.847 1 S
N.SKGH   2.431 1 P
N.SKGH   4.121 1 S
 0007   1.487 1 P
 0007   2.759 1 S
KU.TUFP   1.495 1 P
KU.TUFP   2.519 1 S
 0019   1.899 1 P
 0019   3.303 1 S
 0020   1.815 1 P
 0020   3.231 1 S
 TK01   1.671 1 P
 TK03   1.891 1 P
 TK04   1.771 1 P
 0018   2.951 1 S
 0018   1.751 1 P
 0016   2.695 1 S
 0016   1.575 1 P
 0013   3.639 1 S
 0009   1.679 1 P
 CT10   4.071 1 S
 CT10   2.367 1 P
 TK16   2.121 1 P
 TK10   1.831 1 P
KU.TKED   2.631 1 S
KU.TKED   1.531 1 P
 CT08   1.635 1 P
 CT06   1.859 1 P
 CT06   3.291 1 S
 CT02   3.951 1 S
 CT02   2.339 1 P
 TK15   1.671 1 P
 CT04   3.335 1 S
 CT04   1.955 1 P
 CT05   3.111 1 S
 CT05   1.755 1 P
 TK05   2.241 1 P
# 2016 10 26 01 48 48.905 35.3758 133.8318   0.100  0.00 0 0 0    244
KURAYO   0.695 1 S
 0007   1.011 1 P
KU.TKED   1.619 1 S
 CT08   1.067 1 S
 CT08   0.575 1 P
 TK15   0.455 1 P
 TK10   1.005 1 P
 TK16   1.585 1 P
 CT05   0.399 1 P
 CT05   0.687 1 S
 CT06   0.799 1 P
 CT06   1.719 1 S
 CT04   0.839 1 P
 CT04   1.631 1 S
 CT02   1.407 1 P
 CT02   2.507 1 S
# 2016 10 26 01 49  1.211 35.4181 133.9150   6.300  0.00 0 0 0    245
 CT21   1.369 1 P
 CT21   2.453 1 S
 CT02   1.877 1 P
 CT04   2.981 1 S
 CT04   1.753 1 P
 CT06   2.541 1 S
 CT06   1.489 1 P
 TK10   1.269 1 P
 TK05   2.249 1 P
 0001   2.409 1 P
 0001   4.001 1 S
N.YBRH  10.409 1 S
 0003   2.033 1 P
 0003   3.373 1 S
 CT05   1.677 1 P
 CT05   2.909 1 S
 TK15   1.549 1 P
 CT08   2.565 1 S
 CT08   1.481 1 P
KURAYO   3.559 1 S
KURAYO   2.109 1 P
 0009   1.789 1 S
 0009   1.113 1 P
N.SKGH   5.369 1 S
N.SKGH   3.179 1 P
KU.TKED   1.509 1 P
KU.TKED   2.513 1 S
 0007   3.525 1 S
 0007   2.041 1 P
 0011   5.061 1 S
 0011   2.817 1 P
KU.TUFP   1.829 1 P
KU.TKYD   2.605 1 S
KU.TKYD   1.557 1 P
N.AKSH   4.899 1 P
 0016   2.381 1 S
 0016   1.429 1 P
 TK01   1.719 1 P
 0019   2.389 1 P
 0019   4.189 1 S
 0020   2.049 1 P
 0020   3.685 1 S
 TK04   1.779 1 P
 TK03   1.939 1 P
 0018   1.421 1 P
 0018   2.357 1 S
 0013   1.389 1 P
 0013   2.413 1 S
 CT10   1.373 1 P
 CT10   2.397 1 S
 TK16   1.299 1 P
N.KSBH   4.959 1 S
N.KSBH   2.949 1 P
# 2016 10 26 01 49 38.856 35.3481 133.7192   0.000  0.00 0 0 0    246
N.YBRH   6.744 1 S
N.MZKH   6.994 1 S
N.MZKH   4.164 1 P
N.AKSH   5.334 1 S
N.AKSH   3.094 1 P
 0011   1.532 1 P
 0011   2.872 1 S
 TK03   3.434 1 P
 TK01   2.904 1 P
N.SKGH   0.624 1 P
KU.TUFP   2.388 1 P
KU.TUFP   4.276 1 S
 0007   2.100 1 P
 0007   3.860 1 S
 0003   2.232 1 P
 0003   4.108 1 S
 CT02   3.100 1 P
 TK05   2.204 1 P
 0001   3.808 1 S
 0001   2.068 1 P
# 2016 10 26 01 50 37.789 35.3966 133.8778   6.479  0.00 0 0 0    247
 CT06   1.987 1 S
 CT04   2.227 1 S
 CT04   1.315 1 P
 TK05   1.711 1 P
 0001   3.163 1 S
 0001   1.843 1 P
 TK10   1.071 1 P
 CT05   2.091 1 S
 CT08   1.075 1 P
 CT08   1.995 1 S
 TK01   1.601 1 P
 TK04   1.841 1 P
 0018   1.547 1 P
 0018   2.643 1 S
 0009   1.771 1 S
 TK16   1.271 1 P
 CT21   2.399 1 S
 CT02   2.635 1 S
 CT02   1.547 1 P
# 2016 10 26 01 50 53.265 35.3677 133.8737   3.900  0.00 0 0 0    248
 CT04   1.091 1 S
 TK05   0.985 1 P
 0001   2.031 1 S
 0001   1.127 1 P
 CT05   1.295 1 S
 CT05   0.695 1 P
 TK15   0.835 1 P
 CT08   0.951 1 P
 CT08   1.775 1 S
 CT06   0.683 1 P
 CT06   1.247 1 S
 TK10   0.855 1 P
 TK16   1.195 1 P
 CT02   0.955 1 P
 CT02   1.719 1 S
