# 2016 10 26 01 10 20.018 35.3699 133.8776   3.300  0.00 0 0 0    153
 CT04   0.586 1 P
 CT04   1.098 1 S
 TK05   0.982 1 P
 CT06   1.018 1 S
 CT06   0.510 1 P
 CT05   0.658 1 P
 0011   3.718 1 S
 0011   2.510 1 P
 0007   2.970 1 S
 TK15   0.742 1 P
KU.TUFP   2.614 1 S
 TK01   1.852 1 P
 0016   2.826 1 S
 TK03   2.102 1 P
 TK04   2.012 1 P
 TK10   0.652 1 P
 TK16   0.932 1 P
 CT02   1.606 1 S
 CT02   0.830 1 P
# 2016 10 26 01 10 40.492 35.4522 133.8412   5.900  0.00 0 0 0    154
KU.TKYD   1.204 1 P
KU.TKYD   2.028 1 S
 0001   2.700 1 P
 0001   4.556 1 S
 TK01   1.018 1 P
KU.TUFP   1.908 1 S
KU.TUFP   1.180 1 P
 0007   2.308 1 S
 0007   1.380 1 P
N.SKGH   2.568 1 P
 0011   3.276 1 S
 0011   1.908 1 P
N.AKSH   6.208 1 S
 0019   2.036 1 S
 0019   1.232 1 P
 0020   1.868 1 S
 0020   1.084 1 P
 TK03   1.228 1 P
 TK04   1.148 1 P
 0018   2.220 1 S
 0018   1.128 1 P
 CT21   3.204 1 S
 0009   2.540 1 S
 0009   1.272 1 P
 TK10   1.588 1 P
 0016   1.156 1 P
 0016   1.904 1 S
 CT02   4.052 1 S
 CT06   1.828 1 P
 CT06   3.436 1 S
 CT04   2.112 1 P
 CT04   4.076 1 S
 CT08   1.684 1 P
 TK15   1.788 1 P
 CT05   3.396 1 S
KU.TKED   2.284 1 S
KU.TKED   1.356 1 P
 0003   3.916 1 S
# 2016 10 26 01 11 16.850 35.4458 133.8177   5.216  0.00 0 0 0    155
 0007   1.098 1 P
 0007   1.958 1 S
N.SKGH   2.160 1 P
N.SKGH   3.850 1 S
 0011   1.566 1 P
 0011   2.798 1 S
 0019   1.010 1 P
 0019   1.830 1 S
 0020   0.922 1 P
 0020   1.702 1 S
 TK03   1.190 1 P
 TK04   1.090 1 P
 0018   1.318 1 P
 TK01   0.900 1 P
 0016   1.066 1 P
 0016   1.910 1 S
KU.TKYD   1.086 1 P
KU.TKYD   2.026 1 S
 TK10   1.870 1 P
KU.TKED   1.194 1 P
 CT06   1.982 1 P
 CT06   3.630 1 S
 CT08   1.530 1 P
 CT08   2.742 1 S
 TK15   1.580 1 P
 CT05   1.742 1 P
KU.TUFP   0.946 1 P
KU.TUFP   1.622 1 S
 0001   2.486 1 P
 0001   4.318 1 S
# 2016 10 26 01 11 41.139 35.4506 133.8247   5.773  0.00 0 0 0    156
 0007   1.281 1 P
 0007   2.245 1 S
N.YBRH  10.151 1 S
N.SKGH   4.011 1 S
N.SKGH   2.441 1 P
 0011   1.801 1 P
 0011   3.093 1 S
 0019   1.189 1 P
 0019   2.037 1 S
 0020   1.073 1 P
 0020   1.901 1 S
 TK03   1.231 1 P
 TK04   1.141 1 P
 0013   1.905 1 P
 0013   3.301 1 S
 0018   1.337 1 P
 0018   2.229 1 S
 CT10   2.469 1 P
 0016   1.117 1 P
 0016   1.877 1 S
 TK01   1.001 1 P
 0009   2.725 1 S
 0009   1.597 1 P
 TK16   2.241 1 P
 CT21   2.213 1 P
 TK10   1.901 1 P
KU.TKYD   1.153 1 P
KU.TKYD   1.957 1 S
 CT06   2.037 1 P
 CT06   3.649 1 S
 CT02   2.677 1 P
 CT02   4.605 1 S
 CT08   1.589 1 P
 CT08   2.817 1 S
KU.TKED   1.281 1 P
KU.TKED   2.205 1 S
N.KSBH   3.781 1 P
N.KSBH   6.431 1 S
 TK15   1.691 1 P
 CT04   3.877 1 S
 CT04   2.249 1 P
 CT05   3.237 1 S
 CT05   1.825 1 P
 0003   2.141 1 P
 0003   3.677 1 S
 TK05   2.451 1 P
 0001   4.389 1 S
 0001   2.569 1 P
KU.TUFP   1.101 1 P
KU.TUFP   1.837 1 S
# 2016 10 26 01 12 36.558 35.4523 133.9455   5.147  0.00 0 0 0    157
N.KSBH   3.422 1 P
N.KSBH   5.912 1 S
 CT02   2.402 1 P
 CT02   4.150 1 S
 TK16   1.692 1 P
 CT21   1.794 1 P
 CT04   2.366 1 P
 CT04   4.170 1 S
 CT06   2.070 1 P
 CT06   3.674 1 S
 TK10   1.812 1 P
 TK05   2.912 1 P
 0001   5.306 1 S
 0001   3.062 1 P
 0003   4.606 1 S
 0003   2.686 1 P
 CT05   2.310 1 P
 CT05   4.106 1 S
 TK15   2.162 1 P
 0009   1.522 1 P
 0009   2.618 1 S
 CT08   3.674 1 S
 CT08   2.062 1 P
KU.TKED   3.458 1 S
KU.TKED   2.010 1 P
N.SKGH   6.522 1 S
N.SKGH   3.822 1 P
KU.TKYD   3.518 1 S
KU.TKYD   2.162 1 P
 0007   2.570 1 P
 0007   4.498 1 S
KU.TUFP   4.010 1 S
KU.TUFP   2.338 1 P
 0016   1.750 1 P
 0016   3.082 1 S
 0011   3.298 1 P
 0011   5.994 1 S
 TK01   2.022 1 P
 0018   2.442 1 S
 0018   1.422 1 P
 0013   1.642 1 S
 0013   0.930 1 P
 0019   4.578 1 S
 0019   2.622 1 P
N.AKSH   5.222 1 P
N.AKSH   8.822 1 S
 0020   3.946 1 S
 0020   2.210 1 P
 TK04   1.842 1 P
 TK03   1.932 1 P
 CT10   1.410 1 P
 CT10   2.546 1 S
# 2016 10 26 01 12 59.317 35.4368 133.8304   8.700  0.00 0 0 0    158
 0011   3.467 1 S
 TK03   1.713 1 P
 TK04   1.763 1 P
 0018   1.683 1 P
 0018   2.867 1 S
 TK16   2.283 1 P
 TK10   2.013 1 P
KU.TKED   2.439 1 S
 CT08   3.227 1 S
 CT02   4.467 1 S
 CT04   2.203 1 P
 CT04   3.807 1 S
 CT05   1.891 1 P
 CT05   3.403 1 S
 TK05   2.383 1 P
 0001   2.483 1 P
 0001   4.275 1 S
# 2016 10 26 01 14 13.267 35.4012 133.8421   7.100  0.00 0 0 0    159
 0001   1.809 1 P
 0001   3.109 1 S
N.SKGH   3.773 1 S
 0011   3.477 1 S
 0007   2.461 1 S
 TK01   1.543 1 P
 0016   2.341 1 S
 0018   1.629 1 P
 0013   3.529 1 S
 TK16   1.733 1 P
 CT21   3.141 1 S
 CT21   1.753 1 P
 TK10   1.383 1 P
 CT08   2.061 1 S
 CT06   1.381 1 P
 CT06   2.429 1 S
 TK15   1.263 1 P
 CT02   3.189 1 S
 CT02   1.857 1 P
 CT04   2.549 1 S
 CT04   1.573 1 P
 CT05   2.233 1 S
 CT05   1.277 1 P
 0003   2.589 1 S
 TK05   1.673 1 P
# 2016 10 26 01 14 27.135 35.4056 133.8506   0.000  0.00 0 0 0    160
 0003   1.041 1 P
 TK05   1.415 1 P
 0001   1.593 1 P
 0001   3.017 1 S
KU.TKED   0.137 1 P
 0007   1.689 1 S
 0007   0.497 1 P
KU.TUFP   0.529 1 P
KU.TUFP   1.233 1 S
 0020   1.257 1 P
 TK01   0.805 1 P
KU.TKYD   0.369 1 P
 TK03   1.435 1 P
 0016   0.509 1 P
 0016   1.209 1 S
 0018   1.041 1 P
 0018   2.177 1 S
 0009   0.577 1 P
 0009   1.345 1 S
 TK16   1.225 1 P
 TK10   0.685 1 P
 CT06   0.761 1 P
 CT08   0.749 1 S
 CT08   0.257 1 P
 CT04   1.001 1 P
 TK15   0.345 1 P
 CT05   0.537 1 P
# 2016 10 26 01 15  8.891 35.4171 133.9055   6.142  0.00 0 0 0    161
 CT02   1.729 1 P
 CT04   2.881 1 S
 CT04   1.645 1 P
 CT06   2.393 1 S
 CT06   1.373 1 P
 TK10   1.159 1 P
 TK05   2.149 1 P
 0001   2.289 1 P
 0001   3.941 1 S
 0003   1.917 1 P
 0003   3.265 1 S
 CT05   2.805 1 S
 CT05   1.565 1 P
 TK15   1.469 1 P
 CT08   1.381 1 P
 CT08   2.497 1 S
N.SKGH   3.109 1 P
N.SKGH   5.299 1 S
 0009   1.685 1 S
 0009   1.005 1 P
KU.TKED   1.429 1 P
 0011   2.709 1 P
KU.TUFP   1.729 1 P
KU.TKYD   1.429 1 P
N.AKSH   4.829 1 P
 0016   2.289 1 S
 0016   1.341 1 P
 TK01   1.639 1 P
 TK04   1.699 1 P
 TK03   1.879 1 P
 0018   1.341 1 P
 0018   2.317 1 S
 0013   1.289 1 P
 0013   2.365 1 S
 CT10   1.229 1 P
 CT10   2.229 1 S
 TK16   1.179 1 P
N.KSBH   2.819 1 P
N.KSBH   4.909 1 S
 CT21   1.237 1 P
 CT21   2.349 1 S
# 2016 10 26 01 15 31.923 35.4424 133.8147   6.300  0.00 0 0 0    162
 0007   1.197 1 P
 0007   2.137 1 S
N.SKGH   2.247 1 P
N.SKGH   3.787 1 S
 0011   1.625 1 P
 0011   2.821 1 S
N.AKSH   3.417 1 P
N.AKSH   5.727 1 S
 0019   1.177 1 P
 0019   2.085 1 S
 0020   1.157 1 P
 0020   2.101 1 S
 TK03   1.387 1 P
 TK04   1.277 1 P
 0013   2.025 1 P
 0013   3.573 1 S
 0018   1.477 1 P
 0018   2.509 1 S
 TK01   1.087 1 P
 0016   2.153 1 S
 0016   1.217 1 P
 CT10   4.521 1 S
 CT10   2.537 1 P
 0009   2.893 1 S
 0009   1.669 1 P
 TK16   2.297 1 P
 CT21   2.257 1 P
KU.TKYD   2.133 1 S
KU.TKYD   1.205 1 P
 TK10   1.927 1 P
KU.TKED   1.309 1 P
KU.TKED   2.325 1 S
 CT06   2.041 1 P
 CT06   3.661 1 S
 CT08   1.613 1 P
 CT08   2.933 1 S
 CT02   2.641 1 P
 CT02   4.605 1 S
 TK15   1.647 1 P
 CT04   3.905 1 S
 CT04   2.177 1 P
N.KSBH   6.257 1 S
N.KSBH   3.667 1 P
 CT05   3.213 1 S
 CT05   1.773 1 P
 0003   2.061 1 P
 0003   3.565 1 S
KU.TUFP   1.877 1 S
KU.TUFP   1.089 1 P
 TK05   2.347 1 P
 0001   4.325 1 S
 0001   2.433 1 P
KURAYO   1.587 1 P
# 2016 10 26 01 16 23.570 35.4308 133.8297   4.500  0.00 0 0 0    163
KU.TUFP   0.766 1 P
KU.TUFP   1.366 1 S
 0007   0.918 1 P
 0007   1.758 1 S
 0011   1.550 1 P
 0011   2.714 1 S
 0019   1.046 1 P
 0019   1.982 1 S
 0020   0.946 1 P
 0020   1.842 1 S
 TK03   1.120 1 P
 TK01   0.770 1 P
 TK04   1.010 1 P
 0018   2.054 1 S
 0018   1.150 1 P
 0013   3.166 1 S
 0013   1.734 1 P
 0016   1.558 1 S
 0016   0.846 1 P
 0009   1.258 1 P
 TK16   1.950 1 P
 TK10   1.540 1 P
KU.TKED   1.514 1 S
 TK15   1.300 1 P
 TK05   2.080 1 P
# 2016 10 26 01 17 13.745 35.4380 133.8490   6.275  0.00 0 0 0    164
 0003   1.951 1 P
 0003   3.215 1 S
 TK05   2.225 1 P
 0001   4.031 1 S
 0001   2.367 1 P
KU.TUFP   1.975 1 S
KU.TUFP   1.191 1 P
 0007   2.383 1 S
 0007   1.375 1 P
 TK01   1.105 1 P
 0019   1.583 1 P
 0019   2.735 1 S
 0020   1.355 1 P
 0020   2.387 1 S
 TK03   1.415 1 P
 TK04   1.265 1 P
 0013   2.879 1 S
 TK16   1.855 1 P
 0016   1.823 1 S
 0016   1.079 1 P
 0009   1.271 1 P
 0009   2.135 1 S
 CT21   3.371 1 S
 TK10   1.575 1 P
 CT02   2.343 1 P
 CT02   3.919 1 S
 CT06   1.735 1 P
 CT06   2.983 1 S
 CT04   1.955 1 P
 CT04   3.311 1 S
 CT08   1.347 1 P
 CT08   2.391 1 S
 TK15   1.425 1 P
 CT05   2.735 1 S
 CT05   1.591 1 P
# 2016 10 26 01 17 48.299 35.3878 133.8620   4.500  0.00 0 0 0    165
 CT05   0.725 1 P
 CT05   1.333 1 S
 TK15   0.671 1 P
 TK05   1.301 1 P
 0003   1.021 1 P
 0003   1.857 1 S
 0001   1.425 1 P
 0001   2.605 1 S
 0007   1.245 1 P
 0007   2.285 1 S
KU.TUFP   1.141 1 P
KU.TUFP   2.013 1 S
KU.TKED   1.733 1 S
 0020   1.797 1 P
 0020   3.345 1 S
 TK01   1.351 1 P
 TK04   1.711 1 P
 0016   2.093 1 S
 0018   1.501 1 P
 0018   2.677 1 S
 CT08   0.661 1 P
 CT08   1.321 1 S
 0013   3.349 1 S
 0009   0.917 1 P
 0009   1.777 1 S
 TK16   1.271 1 P
 TK10   0.811 1 P
 CT06   1.469 1 S
 CT06   0.781 1 P
 CT02   1.333 1 P
 CT02   2.429 1 S
 CT04   0.945 1 P
# 2016 10 26 01 18  7.136 35.4089 133.9124   6.159  0.00 0 0 0    166
 CT02   1.632 1 P
 CT04   1.564 1 P
 CT06   2.392 1 S
 CT06   1.328 1 P
 TK05   2.034 1 P
 TK10   1.154 1 P
 TK15   1.624 1 P
 0009   1.832 1 S
 0009   1.096 1 P
 TK01   1.884 1 P
 TK04   1.894 1 P
 0018   2.608 1 S
 0018   1.520 1 P
 0013   2.496 1 S
 CT10   1.864 1 S
 CT10   1.296 1 P
 TK16   1.094 1 P
 CT21   2.300 1 S
 CT21   1.156 1 P
# 2016 10 26 01 18 41.197 35.4464 133.8155   4.735  0.00 0 0 0    167
 0007   1.019 1 P
 0007   1.907 1 S
N.SKGH   2.213 1 P
N.SKGH   3.733 1 S
 0011   1.463 1 P
 0011   2.651 1 S
N.AKSH   3.263 1 P
N.AKSH   5.603 1 S
 0019   0.883 1 P
 0019   1.659 1 S
 0020   0.851 1 P
 0020   1.651 1 S
 TK03   1.103 1 P
 TK04   1.023 1 P
 0013   1.859 1 P
 0013   3.315 1 S
 0018   1.271 1 P
 0018   2.255 1 S
 TK01   0.843 1 P
 0016   1.907 1 S
 0016   1.027 1 P
 0009   2.763 1 S
 0009   1.547 1 P
 TK16   2.213 1 P
 TK10   1.833 1 P
KU.TKED   2.091 1 S
KU.TKED   1.155 1 P
 CT06   3.563 1 S
 CT06   1.955 1 P
 CT08   2.795 1 S
 CT08   1.491 1 P
 CT02   4.675 1 S
 CT02   2.575 1 P
 TK15   1.533 1 P
 CT04   2.099 1 P
 CT04   3.903 1 S
 CT05   1.679 1 P
 CT05   3.243 1 S
 0003   1.971 1 P
KU.TUFP   1.587 1 S
KU.TUFP   0.883 1 P
 TK05   2.293 1 P
 0001   2.375 1 P
 0001   4.307 1 S
# 2016 10 26 01 19  6.742 35.4057 133.8938   4.100  0.00 0 0 0    168
 TK10   0.698 1 P
 CT06   1.602 1 S
 CT06   0.914 1 P
 CT04   1.242 1 P
 CT05   1.894 1 S
 CT05   1.162 1 P
 TK15   1.078 1 P
 CT08   1.002 1 P
 0009   0.770 1 P
 0009   1.342 1 S
 TK16   0.928 1 P
 CT02   1.426 1 P
# 2016 10 26 01 19 21.567 35.4084 133.8513   6.100  0.00 0 0 0    169
 TK15   1.243 1 P
 CT05   1.157 1 P
KU.TKED   0.913 1 P
 0007   2.273 1 S
 0007   1.369 1 P
KU.TUFP   1.181 1 P
 TK01   1.263 1 P
 0016   1.145 1 P
 0016   1.905 1 S
 0018   1.545 1 P
 0018   2.577 1 S
 0009   1.113 1 P
 0009   2.077 1 S
 TK16   1.673 1 P
 TK10   1.323 1 P
 CT06   1.313 1 P
 CT06   2.281 1 S
 CT04   2.545 1 S
 CT04   1.553 1 P
 CT08   0.961 1 P
# 2016 10 26 01 19 53.491 35.3684 133.8642   5.500  0.00 0 0 0    170
 TK05   1.199 1 P
 0001   2.285 1 S
 0001   1.329 1 P
 0003   1.685 1 S
 0011   2.205 1 P
 0007   1.545 1 P
 0007   2.933 1 S
KU.TUFP   2.697 1 S
KU.TUFP   1.585 1 P
 CT05   1.557 1 S
 CT05   0.953 1 P
KU.TKED   2.333 1 S
 TK15   0.999 1 P
 TK04   2.139 1 P
 CT08   1.045 1 P
 CT08   1.901 1 S
 0018   1.929 1 P
 TK10   1.069 1 P
 CT21   2.393 1 S
 CT06   1.621 1 S
 CT06   0.929 1 P
 CT02   1.269 1 P
 CT02   2.149 1 S
 CT04   1.613 1 S
 CT04   0.937 1 P
N.KSBH   3.829 1 S
# 2016 10 26 01 20 10.742 35.4401 133.8352   5.900  0.00 0 0 0    171
 0001   2.354 1 P
 0001   4.082 1 S
KURAYO   1.508 1 P
KU.TUFP   1.018 1 P
KU.TUFP   1.722 1 S
 0007   1.186 1 P
 0007   2.182 1 S
N.SKGH   2.358 1 P
N.SKGH   4.048 1 S
 TK01   0.938 1 P
 0011   3.142 1 S
 0011   1.778 1 P
N.AKSH   6.138 1 S
N.AKSH   3.678 1 P
 0019   2.290 1 S
 0019   1.286 1 P
 0020   2.082 1 S
 0020   1.114 1 P
 TK03   1.248 1 P
 TK04   1.148 1 P
 0018   2.090 1 S
 0018   1.214 1 P
 0013   3.050 1 S
 0013   1.738 1 P
 CT10   2.218 1 P
 0016   1.746 1 S
 0016   0.962 1 P
 TK16   1.978 1 P
 0009   1.358 1 P
 0009   2.662 1 S
 CT21   1.914 1 P
 CT21   3.638 1 S
 TK10   1.648 1 P
 CT02   4.170 1 S
 CT02   2.450 1 P
 CT06   3.250 1 S
 CT06   1.798 1 P
N.KSBH   6.058 1 S
N.KSBH   3.588 1 P
 CT08   2.618 1 S
 CT08   1.350 1 P
 CT04   3.522 1 S
 CT04   2.006 1 P
 TK15   1.488 1 P
KU.TKYD   1.002 1 P
KU.TKYD   1.766 1 S
KU.TKED   1.098 1 P
KU.TKED   1.986 1 S
 CT05   1.614 1 P
 CT05   2.898 1 S
 0003   1.918 1 P
 TK05   2.228 1 P
# 2016 10 26 01 20 33.648 35.3913 133.8799   6.908  0.00 0 0 0    172
 CT06   2.060 1 S
 CT04   2.236 1 S
 0001   1.860 1 P
 0001   3.160 1 S
 0003   2.520 1 S
 CT05   1.272 1 P
 CT05   2.200 1 S
 TK15   1.232 1 P
 CT08   2.144 1 S
 0007   1.772 1 P
 TK01   1.752 1 P
 TK04   1.932 1 P
 0018   2.956 1 S
 0018   1.672 1 P
 0009   2.024 1 S
 0009   1.184 1 P
 0013   1.804 1 P
 CT10   1.640 1 P
 CT10   2.668 1 S
 TK10   1.142 1 P
 TK16   1.332 1 P
 CT21   1.384 1 P
 CT21   2.444 1 S
 CT02   2.616 1 S
# 2016 10 26 01 20 42.215 35.4546 133.8151   6.100  0.00 0 0 0    173
KURAYO   1.755 1 P
KURAYO   2.945 1 S
 0007   1.329 1 P
 0007   2.209 1 S
N.SKGH   2.445 1 P
N.SKGH   4.025 1 S
 0011   1.785 1 P
 0011   2.965 1 S
 0019   1.217 1 P
 0019   2.049 1 S
N.AKSH   5.895 1 S
 TK04   1.305 1 P
 0013   3.521 1 S
 0013   2.101 1 P
 0020   1.985 1 S
 0020   1.181 1 P
 0018   2.601 1 S
 0018   1.521 1 P
 CT10   2.673 1 P
 CT10   4.553 1 S
 TK16   2.435 1 P
 0016   1.293 1 P
 0016   2.161 1 S
 0009   1.785 1 P
 0009   3.001 1 S
 CT21   2.441 1 P
 TK01   1.135 1 P
 TK10   2.075 1 P
 CT06   2.201 1 P
 CT06   3.841 1 S
 CT02   4.817 1 S
 CT02   2.817 1 P
KU.TKYD   2.257 1 S
KU.TKYD   1.305 1 P
 CT08   1.749 1 P
 CT08   3.045 1 S
N.KSBH   6.555 1 S
N.KSBH   3.885 1 P
KU.TKED   2.441 1 S
KU.TKED   1.425 1 P
 CT04   2.357 1 P
 CT04   4.121 1 S
 TK15   1.795 1 P
 CT05   3.393 1 S
 CT05   1.929 1 P
 0003   3.793 1 S
 0003   2.245 1 P
 TK05   2.555 1 P
 0001   2.641 1 P
 0001   4.569 1 S
KU.TUFP   1.905 1 S
KU.TUFP   1.185 1 P
# 2016 10 26 01 20 59.785 35.3916 133.8838   6.500  0.00 0 0 0    174
 CT06   1.983 1 S
 CT04   2.187 1 S
 CT04   1.303 1 P
 TK05   1.695 1 P
 0001   3.115 1 S
 0001   1.823 1 P
 TK10   1.135 1 P
 0003   2.459 1 S
 CT05   1.251 1 P
 CT05   2.131 1 S
 TK15   1.195 1 P
 0007   1.747 1 P
KU.TUFP   2.755 1 S
KU.TUFP   1.603 1 P
 TK01   1.735 1 P
 0018   1.643 1 P
 0018   2.935 1 S
 0009   1.167 1 P
 0009   1.983 1 S
 TK16   1.325 1 P
 CT02   2.591 1 S
 CT02   1.503 1 P
# 2016 10 26 01 21  8.313 35.3896 133.8484   7.253  0.00 0 0 0    175
 0003   1.423 1 P
 0003   2.367 1 S
 TK05   1.607 1 P
 0001   2.935 1 S
 0001   1.739 1 P
N.SKGH   3.737 1 S
N.SKGH   2.207 1 P
KURAYO   2.277 1 S
KURAYO   1.357 1 P
 0011   3.519 1 S
 0011   2.059 1 P
N.AKSH   6.947 1 S
 0007   2.595 1 S
 0007   1.447 1 P
KU.TUFP   2.299 1 S
KU.TUFP   1.371 1 P
 0019   3.551 1 S
 0019   2.067 1 P
 0020   3.503 1 S
 0020   1.951 1 P
 TK01   1.617 1 P
KU.TKYD   2.391 1 S
 TK03   2.077 1 P
KU.TKED   1.283 1 P
KU.TKED   2.159 1 S
 TK04   1.887 1 P
 0016   1.471 1 P
 0016   2.527 1 S
 0018   1.655 1 P
 0018   3.099 1 S
 0013   2.143 1 P
 0013   3.719 1 S
 CT08   1.231 1 P
 CT08   2.103 1 S
 0009   1.295 1 P
 0009   2.415 1 S
 TK15   1.207 1 P
 TK10   1.387 1 P
 TK16   1.767 1 P
 CT21   3.143 1 S
 CT21   1.707 1 P
 CT06   2.527 1 S
 CT06   1.351 1 P
 CT05   2.143 1 S
 CT05   1.223 1 P
 CT02   2.999 1 S
 CT02   1.795 1 P
 CT04   2.407 1 S
 CT04   1.419 1 P
N.KSBH   2.817 1 P
N.KSBH   4.617 1 S
# 2016 10 26 01 21 43.500 35.4002 133.9435   7.100  0.00 0 0 0    176
N.KSBH   2.710 1 P
N.KSBH   4.510 1 S
 CT02   1.804 1 P
 CT10   1.984 1 S
 CT10   1.168 1 P
 TK05   2.440 1 P
 0001   4.288 1 S
 0001   2.588 1 P
 CT04   1.900 1 P
 CT04   3.216 1 S
 CT06   1.644 1 P
 CT06   2.900 1 S
 CT21   2.556 1 S
 CT21   1.472 1 P
 TK16   1.360 1 P
 CT05   3.492 1 S
 CT05   2.000 1 P
 TK10   1.580 1 P
 TK15   1.920 1 P
 CT08   1.872 1 P
 0007   2.556 1 P
 0007   3.972 1 S
KU.TKED   2.020 1 P
 0009   1.544 1 P
 0009   2.560 1 S
 0016   1.956 1 P
 TK01   2.310 1 P
 TK04   2.340 1 P
 0018   1.924 1 P
 0018   3.280 1 S
 TK03   2.510 1 P
 0013   1.728 1 P
 0013   3.004 1 S
# 2016 10 26 01 22 13.508 35.4161 133.8377   5.700  0.00 0 0 0    177
 0011   1.444 1 P
KU.TUFP   1.380 1 S
 0020   2.604 1 S
 TK01   1.102 1 P
 TK03   1.562 1 P
 TK04   1.392 1 P
 0018   1.392 1 P
 0018   2.364 1 S
 0016   1.816 1 S
 0009   1.976 1 S
 TK16   1.752 1 P
 TK10   1.342 1 P
 CT08   1.148 1 P
 CT08   1.844 1 S
KU.TKED   0.868 1 P
KU.TKED   2.276 1 S
 CT04   1.900 1 P
 0003   1.636 1 P
# 2016 10 26 01 22 39.597 35.4076 133.9079   7.100  0.00 0 0 0    178
 CT04   1.583 1 P
 CT04   2.683 1 S
 CT06   1.395 1 P
 CT06   2.395 1 S
 TK05   2.043 1 P
 CT05   2.699 1 S
 CT05   1.599 1 P
 CT08   2.687 1 S
 CT08   1.487 1 P
KURAYO   2.213 1 P
 0009   2.051 1 S
 0009   1.023 1 P
 TK01   1.883 1 P
 TK04   1.973 1 P
 TK03   2.213 1 P
 0018   1.655 1 P
 0018   2.851 1 S
 CT10   2.283 1 S
 CT10   1.407 1 P
 TK16   1.313 1 P
 CT21   2.531 1 S
 CT21   1.283 1 P
 CT02   2.883 1 S
 CT02   1.703 1 P
# 2016 10 26 01 22 55.540 35.3738 133.8599   6.700  0.00 0 0 0    179
 TK05   1.400 1 P
 0001   2.572 1 S
 0001   1.520 1 P
 0003   2.068 1 S
 0003   1.228 1 P
 0007   2.716 1 S
KU.TKED   2.460 1 S
 TK15   1.170 1 P
 CT05   1.108 1 P
 CT05   1.940 1 S
 CT08   1.196 1 P
 CT08   2.244 1 S
 0018   1.876 1 P
 0018   3.324 1 S
 0009   1.440 1 P
 0009   2.516 1 S
 TK10   1.260 1 P
 TK16   1.600 1 P
 CT06   1.164 1 P
 CT06   2.020 1 S
 CT02   2.492 1 S
 CT02   1.612 1 P
 CT04   1.188 1 P
 CT04   1.996 1 S
# 2016 10 26 01 23  8.554 35.4224 133.8335   4.315  0.00 0 0 0    180
 0001   1.930 1 P
 0001   3.454 1 S
KURAYO   1.076 1 P
KURAYO   1.956 1 S
N.SKGH   2.026 1 P
N.SKGH   3.486 1 S
 0007   0.818 1 P
 0007   1.446 1 S
 0011   1.478 1 P
 0011   2.694 1 S
KU.TUFP   0.638 1 P
KU.TUFP   1.110 1 S
N.AKSH   3.606 1 P
N.AKSH   6.186 1 S
 0019   1.214 1 P
 0019   2.254 1 S
 0020   1.098 1 P
 0020   2.174 1 S
 TK01   0.796 1 P
 TK03   1.296 1 P
 TK04   1.116 1 P
 0018   2.158 1 S
 0018   1.226 1 P
 0016   1.462 1 S
 0016   0.798 1 P
 0013   3.198 1 S
 0013   1.742 1 P
KU.TKYD   1.278 1 S
KU.TKYD   0.686 1 P
 CT10   2.054 1 P
 0009   2.070 1 S
 0009   1.114 1 P
 TK16   1.736 1 P
 CT21   1.670 1 P
 TK10   1.336 1 P
 CT06   2.722 1 S
 CT06   1.454 1 P
 CT02   2.062 1 P
 CT02   3.694 1 S
 CT08   2.010 1 S
 CT08   0.982 1 P
KU.TKED   0.706 1 P
KU.TKED   1.350 1 S
N.KSBH   3.156 1 P
N.KSBH   5.486 1 S
 TK15   1.036 1 P
 CT04   1.590 1 P
 CT04   2.990 1 S
 CT05   1.170 1 P
 CT05   2.250 1 S
 0003   1.482 1 P
 0003   2.866 1 S
 TK05   1.806 1 P
# 2016 10 26 01 23 35.599 35.4051 133.8952   8.900  0.00 0 0 0    181
 TK10   1.571 1 P
 CT06   2.829 1 S
 CT04   1.785 1 P
 CT04   3.065 1 S
 TK05   2.181 1 P
 0001   2.321 1 P
 0001   3.937 1 S
 0003   3.309 1 S
 CT05   1.801 1 P
 CT05   3.105 1 S
 TK15   1.701 1 P
N.SKGH   3.041 1 P
N.SKGH   5.161 1 S
 CT08   1.645 1 P
 CT08   2.945 1 S
 0011   2.801 1 P
KU.TKED   1.725 1 P
N.AKSH   8.021 1 S
KU.TUFP   1.977 1 P
 0019   2.517 1 P
 TK01   1.961 1 P
 0009   1.465 1 P
 0009   2.465 1 S
 TK04   2.041 1 P
 TK03   2.211 1 P
 0018   2.977 1 S
 0018   1.753 1 P
 0013   3.097 1 S
 0013   1.801 1 P
 CT10   1.689 1 P
 CT10   2.865 1 S
 TK16   1.631 1 P
 CT21   1.641 1 P
 CT21   2.937 1 S
N.KSBH   2.841 1 P
N.KSBH   4.771 1 S
 CT02   1.937 1 P
 CT02   3.281 1 S
# 2016 10 26 01 23 52.465 35.3591 133.8812   4.316  0.00 0 0 0    182
 0001   2.187 1 S
 TK05   1.155 1 P
 CT04   0.747 1 P
 CT04   1.275 1 S
 TK01   2.035 1 P
 TK03   2.415 1 P
 TK04   2.305 1 P
 CT06   1.311 1 S
 CT06   0.779 1 P
 TK10   0.915 1 P
 CT21   1.095 1 P
 CT21   2.027 1 S
 TK16   1.135 1 P
 CT02   1.559 1 S
 CT02   0.871 1 P
