# 2016 10 26 00 43 40.957 35.4103 133.8614   3.900  0.00 0 0 0     89
 CT08   0.599 1 P
 CT08   1.243 1 S
 CT05   0.863 1 P
 TK15   0.703 1 P
 TK05   1.693 1 P
 0007   1.043 1 P
 0007   2.123 1 S
KU.TKED   0.515 1 P
KU.TUFP   0.843 1 P
 0020   2.727 1 S
 TK01   0.933 1 P
 0016   0.699 1 P
 0016   1.327 1 S
 TK04   1.293 1 P
 0018   2.027 1 S
 0018   1.087 1 P
 0009   1.299 1 S
 0009   0.707 1 P
 TK16   1.283 1 P
 TK10   0.873 1 P
 CT06   1.971 1 S
 CT06   1.003 1 P
 CT04   1.291 1 P
 CT04   2.367 1 S
# 2016 10 26 00 44 15.116 35.4391 133.8181   5.131  0.00 0 0 0     90
KU.TUFP   0.836 1 P
KU.TUFP   1.436 1 S
 0007   0.988 1 P
 0007   1.804 1 S
N.SKGH   2.114 1 P
N.SKGH   3.704 1 S
 0011   1.524 1 P
 0011   2.708 1 S
 0019   1.036 1 P
 0019   1.884 1 S
 0020   0.972 1 P
 0020   1.868 1 S
 TK03   1.224 1 P
 TK04   1.134 1 P
 0018   1.316 1 P
 0018   2.268 1 S
 0013   1.912 1 P
 0013   3.372 1 S
 TK01   0.834 1 P
 0016   1.860 1 S
 0016   0.988 1 P
 0009   2.736 1 S
 0009   1.476 1 P
 TK16   2.154 1 P
KU.TKYD   1.868 1 S
 CT06   3.428 1 S
 CT06   1.876 1 P
 CT08   2.636 1 S
 CT08   1.412 1 P
 TK15   1.464 1 P
 CT04   2.008 1 P
 TK05   2.224 1 P
 0001   2.328 1 P
# 2016 10 26 00 44 53.083 35.4511 133.8801   1.700  0.00 0 0 0     91
 CT08   1.349 1 P
 CT08   1.949 1 S
 CT05   3.125 1 S
 TK15   1.307 1 P
 TK05   2.687 1 P
 0003   3.493 1 S
KU.TKED   2.033 1 S
KU.TUFP   2.333 1 S
 TK03   0.627 1 P
 TK16   1.787 1 P
 TK10   1.647 1 P
 CT06   1.657 1 P
 CT06   2.509 1 S
 CT04   3.349 1 S
 CT04   1.757 1 P
# 2016 10 26 00 45 22.602 35.3909 133.8822   6.828  0.00 0 0 0     92
 CT06   1.990 1 S
 CT04   2.162 1 S
 CT04   1.330 1 P
 TK05   1.718 1 P
 0001   3.150 1 S
 0001   1.838 1 P
 TK10   1.148 1 P
 CT05   2.190 1 S
 CT05   1.278 1 P
 TK15   1.248 1 P
 CT08   2.126 1 S
 CT08   1.210 1 P
 0007   1.766 1 P
 TK01   1.798 1 P
 0018   1.682 1 P
 0018   2.906 1 S
 0009   1.226 1 P
 0009   2.022 1 S
 TK16   1.328 1 P
 CT21   2.422 1 S
 CT02   2.590 1 S
 CT02   1.526 1 P
# 2016 10 26 00 45 37.705 35.3898 133.8841   6.755  0.00 0 0 0     93
 CT06   2.003 1 S
 CT04   2.223 1 S
 CT04   1.315 1 P
 TK05   1.705 1 P
 0001   3.135 1 S
 0001   1.839 1 P
 CT05   1.267 1 P
 CT05   2.191 1 S
 TK15   1.235 1 P
 CT08   1.199 1 P
 CT08   2.111 1 S
 0007   3.059 1 S
 0019   4.163 1 S
 TK01   1.785 1 P
 0016   2.631 1 S
 TK04   1.925 1 P
 0018   2.883 1 S
 0018   1.663 1 P
 0009   1.147 1 P
 0009   2.015 1 S
 0013   3.207 1 S
 CT21   2.387 1 S
 TK10   1.135 1 P
N.KSBH   4.295 1 S
 CT02   1.515 1 P
 CT02   2.583 1 S
# 2016 10 26 00 45 52.663 35.4360 133.8338   5.378  0.00 0 0 0     94
 0001   2.265 1 P
 0001   3.977 1 S
KU.TUFP   0.897 1 P
KU.TUFP   1.633 1 S
 0007   1.073 1 P
 0007   1.977 1 S
 0011   1.681 1 P
 0011   2.953 1 S
 0019   1.169 1 P
 0019   2.137 1 S
 0020   1.009 1 P
 0020   1.945 1 S
 TK03   1.147 1 P
 TK01   0.887 1 P
 TK04   1.107 1 P
 0018   2.073 1 S
 0018   1.209 1 P
 0013   3.141 1 S
 0013   1.733 1 P
 0016   1.665 1 S
 0009   1.349 1 P
 0009   2.425 1 S
 TK16   2.017 1 P
 TK10   1.447 1 P
 TK05   2.177 1 P
# 2016 10 26 00 45 58.164 35.3624 133.8697   3.648  0.00 0 0 0     95
N.YBRH   5.086 1 P
N.YBRH   8.396 1 S
 CT04   0.584 1 P
 CT04   1.036 1 S
 TK05   0.876 1 P
 0003   0.732 1 P
N.MZKH   6.206 1 P
N.MZKH  10.396 1 S
 TK01   1.886 1 P
 TK04   2.246 1 P
 TK10   0.896 1 P
 CT06   1.224 1 S
 CT06   0.680 1 P
# 2016 10 26 00 46 17.043 35.3838 133.8555   6.500  0.00 0 0 0     96
 TK05   1.437 1 P
 0001   1.533 1 P
 TK15   0.967 1 P
N.SKGH   3.917 1 S
 0011   2.133 1 P
 0007   2.429 1 S
 0007   1.385 1 P
 0020   3.613 1 S
KU.TKED   1.145 1 P
 TK01   1.647 1 P
 TK03   2.107 1 P
 TK04   1.967 1 P
 0018   1.793 1 P
 CT08   0.969 1 P
 TK16   1.567 1 P
 TK10   1.137 1 P
 CT21   2.697 1 S
 CT21   1.509 1 P
 CT02   2.773 1 S
 CT02   1.545 1 P
N.KSBH   4.357 1 S
# 2016 10 26 00 46 50.835 35.3795 133.8584   5.100  0.00 0 0 0     97
 TK05   1.255 1 P
 0001   2.453 1 S
 0001   1.397 1 P
 0003   1.797 1 S
 0003   1.037 1 P
 CT05   1.429 1 S
 CT05   0.781 1 P
N.SKGH   3.715 1 S
N.SKGH   2.145 1 P
 0011   3.605 1 S
 0011   2.037 1 P
 0007   2.357 1 S
 0007   1.309 1 P
KU.TUFP   2.165 1 S
KU.TUFP   1.261 1 P
 0019   3.693 1 S
 0019   2.037 1 P
 0020   3.621 1 S
 0020   1.917 1 P
 TK01   1.505 1 P
KU.TKED   1.017 1 P
KU.TKED   1.901 1 S
KU.TKYD   1.173 1 P
KU.TKYD   2.221 1 S
 TK03   2.045 1 P
 TK04   1.825 1 P
 0016   1.285 1 P
 0016   2.413 1 S
 TK15   0.785 1 P
 CT08   1.561 1 S
 CT08   0.809 1 P
 0018   2.977 1 S
 0018   1.653 1 P
 0013   3.637 1 S
 0013   1.973 1 P
 0009   2.021 1 S
 0009   1.085 1 P
 TK10   0.945 1 P
 CT10   1.733 1 P
 CT10   3.117 1 S
 TK16   1.365 1 P
 CT21   2.521 1 S
 CT21   1.293 1 P
 CT06   1.441 1 S
 CT06   0.869 1 P
 CT02   2.349 1 S
 CT02   1.361 1 P
 CT04   1.669 1 S
 CT04   0.965 1 P
N.KSBH   4.185 1 S
N.KSBH   2.405 1 P
# 2016 10 26 00 47 47.342 35.4131 133.8518   4.100  0.00 0 0 0     98
KU.TKED   0.658 1 P
 0007   1.046 1 P
 0007   1.914 1 S
KU.TUFP   1.406 1 S
 TK01   0.988 1 P
 TK04   1.268 1 P
 0018   1.146 1 P
 0018   2.062 1 S
 0009   0.822 1 P
 0009   1.626 1 S
 TK16   1.398 1 P
 TK10   0.988 1 P
 CT06   1.106 1 P
 CT06   2.050 1 S
 CT08   0.746 1 P
 CT08   1.386 1 S
 CT04   1.346 1 P
 CT04   2.414 1 S
 CT05   0.970 1 P
 CT05   1.794 1 S
# 2016 10 26 00 48 18.354 35.4055 133.9264   6.100  0.00 0 0 0     99
N.KSBH   2.796 1 P
N.KSBH   4.646 1 S
 CT02   1.722 1 P
 CT02   2.806 1 S
 CT21   1.238 1 P
 CT21   2.230 1 S
N.YBRH  10.326 1 S
 TK05   2.186 1 P
 CT06   1.394 1 P
 CT06   2.358 1 S
 0003   3.254 1 S
 0003   1.974 1 P
 CT05   2.686 1 S
N.SKGH   3.306 1 P
N.SKGH   5.486 1 S
 CT08   2.414 1 S
 0011   5.158 1 S
 0011   2.966 1 P
 0007   3.854 1 S
 0007   2.174 1 P
KU.TKED   1.610 1 P
 0009   1.838 1 S
 0009   1.170 1 P
KU.TKYD   3.326 1 S
KU.TKYD   1.698 1 P
N.AKSH   5.126 1 P
 0016   2.654 1 S
 0016   1.610 1 P
 0019   4.382 1 S
 0020   4.122 1 S
 0020   2.286 1 P
 TK03   2.196 1 P
 0018   2.718 1 S
 0013   1.598 1 P
 0013   2.710 1 S
 CT10   2.022 1 S
# 2016 10 26 00 48 54.779 35.4299 133.8448   5.544  0.00 0 0 0    100
KU.TUFP   0.957 1 P
KU.TUFP   1.629 1 S
 0007   1.133 1 P
 0007   1.901 1 S
N.SKGH   2.301 1 P
N.SKGH   3.941 1 S
 0011   1.821 1 P
 0011   3.181 1 S
 0019   1.449 1 P
 0019   2.589 1 S
 0020   1.245 1 P
 0020   2.397 1 S
 TK03   1.351 1 P
 TK01   0.971 1 P
 TK04   1.181 1 P
 0018   1.997 1 S
 0018   1.189 1 P
 0013   2.933 1 S
 0013   1.649 1 P
 0016   1.613 1 S
 0016   0.901 1 P
 CT10   1.969 1 P
 0009   1.965 1 S
 0009   1.121 1 P
 TK16   1.741 1 P
 TK10   1.391 1 P
 CT06   1.557 1 P
 CT06   2.869 1 S
 CT02   3.717 1 S
 CT02   2.181 1 P
 CT08   1.217 1 P
 CT08   2.141 1 S
KU.TKED   1.649 1 S
KU.TKED   0.945 1 P
 TK15   1.241 1 P
 CT04   3.073 1 S
 CT04   1.757 1 P
 CT05   2.461 1 S
 CT05   1.389 1 P
 0003   1.717 1 P
 TK05   2.011 1 P
 0001   2.149 1 P
 0001   3.773 1 S
# 2016 10 26 00 49  5.147 35.4261 133.8334   6.379  0.00 0 0 0    101
N.YBRH   9.573 1 S
N.SKGH   3.793 1 S
N.SKGH   2.223 1 P
 0007   1.165 1 P
 0007   2.077 1 S
KU.TUFP   1.021 1 P
KU.TUFP   1.717 1 S
 0011   1.741 1 P
 0011   2.973 1 S
 0019   1.457 1 P
 0019   2.581 1 S
 0020   1.365 1 P
 0020   2.477 1 S
 TK03   1.503 1 P
 TK01   1.133 1 P
 TK04   1.353 1 P
 0018   2.333 1 S
 0018   1.393 1 P
 0013   3.293 1 S
 0013   1.857 1 P
 0016   1.925 1 S
 0016   1.109 1 P
 CT10   2.209 1 P
 0009   2.421 1 S
 0009   1.357 1 P
 TK16   1.953 1 P
KU.TKYD   1.061 1 P
KU.TKYD   1.861 1 S
 TK10   1.583 1 P
 CT06   2.969 1 S
 CT06   1.681 1 P
 CT02   3.877 1 S
 CT02   2.285 1 P
 CT08   2.445 1 S
 CT08   1.289 1 P
KU.TKED   1.933 1 S
KU.TKED   1.089 1 P
N.KSBH   5.603 1 S
 TK15   1.343 1 P
 CT04   3.173 1 S
 CT04   1.845 1 P
 CT05   2.637 1 S
 CT05   1.477 1 P
 0003   1.761 1 P
 0003   3.077 1 S
 TK05   2.043 1 P
 0001   3.741 1 S
 0001   2.165 1 P
# 2016 10 26 00 49 29.386 35.3848 133.8288   0.000  0.00 0 0 0    102
KURAYO   0.244 1 S
N.SKGH   2.704 1 S
 0011   1.350 1 P
 0007   1.358 1 S
 0007   0.582 1 P
KU.TUFP   1.506 1 S
 TK01   1.234 1 P
 TK03   1.974 1 P
 TK04   1.814 1 P
 CT08   1.374 1 S
 CT08   0.654 1 P
 TK16   1.604 1 P
 TK10   1.084 1 P
 TK15   0.514 1 P
 CT06   0.862 1 P
 CT06   1.910 1 S
 CT05   0.454 1 P
 CT02   1.394 1 P
 CT04   0.862 1 P
 0003   1.374 1 S
 0003   0.622 1 P
 TK05   0.954 1 P
 0001   1.094 1 P
 0001   2.142 1 S
# 2016 10 26 00 50 25.288 35.4396 133.8245   5.100  0.00 0 0 0    103
KU.TUFP   0.844 1 P
KU.TUFP   1.564 1 S
 0007   1.020 1 P
 0007   1.912 1 S
N.SKGH   2.192 1 P
 0011   1.552 1 P
 0011   2.800 1 S
 0019   1.004 1 P
 0019   1.864 1 S
 0020   0.920 1 P
 0020   1.768 1 S
 TK03   1.142 1 P
 TK01   0.822 1 P
 TK04   1.032 1 P
 0018   2.160 1 S
 0018   1.232 1 P
 0013   3.248 1 S
 0016   1.776 1 S
 0016   0.992 1 P
 0009   1.436 1 P
 0009   2.560 1 S
 TK16   2.092 1 P
 CT06   1.844 1 P
 CT08   1.384 1 P
 CT08   2.600 1 S
 CT04   2.068 1 P
 0001   2.380 1 P
# 2016 10 26 00 50 33.515 35.4111 133.9000  10.022  0.00 0 0 0    104
 CT04   3.501 1 S
 0001   2.517 1 P
 0001   4.317 1 S
 0003   3.741 1 S
N.SKGH   5.425 1 S
 0011   2.689 1 P
 0011   5.169 1 S
KU.TUFP   3.613 1 S
 0009   1.741 1 P
 0009   2.625 1 S
 0019   2.565 1 P
 0019   4.477 1 S
 TK01   2.105 1 P
 0016   3.213 1 S
 0020   4.133 1 S
 0020   2.361 1 P
 TK04   2.175 1 P
 TK03   2.305 1 P
 0018   3.209 1 S
 0018   1.917 1 P
 0013   1.925 1 P
 0013   3.365 1 S
 CT10   3.333 1 S
 CT10   1.957 1 P
 TK16   1.945 1 P
 CT21   1.893 1 P
 CT21   3.129 1 S
N.KSBH   5.095 1 S
N.KSBH   3.015 1 P
 CT02   1.909 1 P
 CT02   3.701 1 S
# 2016 10 26 00 50 44.691 35.3840 133.8689   5.882  0.00 0 0 0    105
 CT04   1.081 1 P
 CT04   1.837 1 S
 TK05   1.439 1 P
 0001   2.725 1 S
 0001   1.577 1 P
 0003   2.093 1 S
 0003   1.205 1 P
 CT05   1.717 1 S
 CT05   0.961 1 P
 0011   2.253 1 P
 TK15   0.979 1 P
 0007   2.669 1 S
 0007   1.509 1 P
KU.TUFP   2.405 1 S
KU.TUFP   1.409 1 P
 CT08   1.713 1 S
 CT08   0.909 1 P
 0020   3.689 1 S
 TK01   1.609 1 P
 0016   2.461 1 S
 TK03   2.049 1 P
 TK04   1.869 1 P
 0018   1.641 1 P
 0009   1.893 1 S
 0009   1.097 1 P
 TK10   0.989 1 P
 CT10   1.645 1 P
 CT10   2.877 1 S
 TK16   1.309 1 P
 CT21   2.381 1 S
 CT21   1.261 1 P
 CT06   1.609 1 S
 CT06   0.933 1 P
 CT02   2.421 1 S
 CT02   1.417 1 P
# 2016 10 26 00 51  3.222 35.3879 133.8078   3.566  0.00 0 0 0    106
 0011   1.346 1 P
 0007   1.354 1 S
 0007   0.750 1 P
KU.TUFP   0.858 1 P
 TK01   1.318 1 P
 TK04   1.838 1 P
 0018   3.306 1 S
 CT08   1.946 1 S
 TK10   1.508 1 P
 CT06   2.454 1 S
 CT06   1.338 1 P
 CT05   0.938 1 P
 CT04   1.350 1 P
 0003   1.874 1 S
 0003   1.154 1 P
 TK05   1.308 1 P
 0001   1.394 1 P
 0001   2.346 1 S
# 2016 10 26 00 51 19.072 35.4047 133.9196   6.598  0.00 0 0 0    107
 CT02   1.692 1 P
 CT06   2.544 1 S
 CT06   1.424 1 P
 TK10   1.288 1 P
 TK05   2.218 1 P
 0001   2.392 1 P
 0001   4.056 1 S
 CT05   1.696 1 P
KU.TKED   2.364 1 S
 0009   1.240 1 P
 0009   2.104 1 S
 TK01   1.988 1 P
 TK04   2.008 1 P
 0018   1.608 1 P
 0018   2.864 1 S
 0013   2.568 1 S
 CT10   1.920 1 S
 TK16   1.178 1 P
N.KSBH   4.488 1 S
 CT21   1.072 1 P
 CT21   2.396 1 S
# 2016 10 26 00 51 44.276 35.3634 133.8731   3.700  0.00 0 0 0    108
 CT04   0.648 1 P
 CT04   1.064 1 S
 TK05   1.054 1 P
 0001   2.132 1 S
 0003   1.332 1 S
 0003   0.840 1 P
 0007   2.740 1 S
 0007   1.496 1 P
 CT05   0.616 1 P
 CT05   0.972 1 S
KU.TUFP   1.508 1 P
KU.TUFP   2.792 1 S
 TK15   0.744 1 P
KU.TKED   2.332 1 S
 TK01   1.904 1 P
 CT08   1.572 1 S
 CT08   0.860 1 P
 0016   2.940 1 S
 0016   1.580 1 P
 0018   3.476 1 S
 0018   1.948 1 P
 TK10   0.814 1 P
 CT06   0.616 1 P
 CT06   1.128 1 S
 CT21   1.608 1 S
 CT21   1.132 1 P
 TK16   1.254 1 P
 CT02   1.072 1 P
 CT02   1.820 1 S
N.KSBH   3.094 1 S
# 2016 10 26 00 52  6.691 35.4020 133.8613   6.100  0.00 0 0 0    109
 TK15   1.219 1 P
 CT05   1.857 1 S
 CT05   1.205 1 P
 TK05   1.679 1 P
 0003   1.469 1 P
 0003   2.213 1 S
 0001   1.821 1 P
 0001   2.901 1 S
 0007   1.541 1 P
 0007   2.725 1 S
 0020   2.429 1 S
 TK01   1.299 1 P
 TK03   1.529 1 P
 TK04   1.579 1 P
 0018   1.637 1 P
 0018   2.705 1 S
 TK10   1.379 1 P
 CT02   2.809 1 S
 CT02   1.781 1 P
 CT06   1.913 1 S
 CT06   1.293 1 P
 CT04   2.101 1 S
 CT04   1.397 1 P
 CT08   2.029 1 S
 CT08   1.233 1 P
# 2016 10 26 00 52 15.367 35.3897 133.8637   4.500  0.00 0 0 0    110
 CT05   0.753 1 P
 CT05   1.409 1 S
 TK05   1.323 1 P
 0003   1.993 1 S
 0003   1.077 1 P
 0001   2.677 1 S
 0001   1.465 1 P
 TK15   0.693 1 P
KURAYO   2.093 1 S
 0011   2.041 1 P
 0007   2.337 1 S
 0007   1.265 1 P
KU.TUFP   2.085 1 S
KU.TUFP   1.161 1 P
 0019   1.937 1 P
 0019   3.549 1 S
 0020   1.777 1 P
 0020   3.377 1 S
KU.TKED   1.341 1 S
KU.TKED   0.837 1 P
 TK01   1.333 1 P
 TK03   1.853 1 P
 TK04   1.683 1 P
 0016   2.105 1 S
 0016   1.149 1 P
 0018   2.673 1 S
 0018   1.441 1 P
 CT08   1.273 1 S
 CT08   0.661 1 P
 0013   3.265 1 S
 0013   1.737 1 P
 0009   0.853 1 P
 0009   1.657 1 S
 CT10   2.769 1 S
 TK16   1.183 1 P
 TK10   0.773 1 P
 CT21   1.129 1 P
 CT21   2.181 1 S
 CT06   0.769 1 P
 CT06   1.529 1 S
 CT02   1.313 1 P
 CT02   2.369 1 S
N.KSBH   4.293 1 S
 CT04   1.745 1 S
 CT04   0.957 1 P
# 2016 10 26 00 52 48.089 35.4253 133.8387   4.434  0.00 0 0 0    111
 0001   1.983 1 P
N.SKGH   3.711 1 S
 0007   0.879 1 P
 0007   1.655 1 S
 0011   1.567 1 P
 0011   2.959 1 S
KU.TUFP   1.239 1 S
KU.TUFP   0.695 1 P
 0019   1.215 1 P
 0019   2.319 1 S
 0020   1.051 1 P
 0020   2.135 1 S
 TK01   0.731 1 P
 TK03   1.201 1 P
 TK04   1.021 1 P
 0018   1.871 1 S
 0018   1.071 1 P
 0016   1.391 1 S
 0016   0.727 1 P
 0013   2.935 1 S
 CT10   1.967 1 P
 0009   1.031 1 P
 0009   1.899 1 S
 TK16   1.671 1 P
 TK10   1.291 1 P
 CT06   2.807 1 S
 CT06   1.407 1 P
 CT02   3.747 1 S
 CT02   2.135 1 P
 CT08   0.979 1 P
 TK15   1.081 1 P
 CT04   2.979 1 S
 CT04   1.635 1 P
 CT05   2.371 1 S
 CT05   1.215 1 P
 TK05   1.871 1 P
# 2016 10 26 00 53 28.973 35.4265 133.8328   6.700  0.00 0 0 0    112
KU.TUFP   1.039 1 P
 0007   1.163 1 P
N.SKGH   3.827 1 S
 0011   1.743 1 P
 0019   1.523 1 P
 0019   2.619 1 S
 0020   1.403 1 P
 0020   2.579 1 S
 TK03   1.567 1 P
 TK01   1.177 1 P
 TK04   1.407 1 P
 0013   3.331 1 S
 0016   1.999 1 S
 TK10   1.637 1 P
 CT06   1.679 1 P
 CT06   3.103 1 S
 CT02   2.287 1 P
 CT02   3.939 1 S
 CT08   2.415 1 S
KU.TKED   1.887 1 S
KU.TKED   1.103 1 P
 CT04   3.239 1 S
 CT04   1.851 1 P
 TK05   2.047 1 P
 0001   3.715 1 S
 0001   2.179 1 P
# 2016 10 26 00 53 51.454 35.3938 133.8417   3.832  0.00 0 0 0    113
 0001   1.418 1 P
 0001   2.530 1 S
 0011   1.694 1 P
 0007   1.682 1 S
 0007   0.906 1 P
KU.TUFP   1.566 1 S
KU.TUFP   0.862 1 P
 TK01   1.276 1 P
 TK04   1.656 1 P
KU.TKED   0.706 1 P
 0009   1.950 1 S
 0009   1.082 1 P
 CT08   0.634 1 P
 CT08   1.206 1 S
 TK16   1.486 1 P
 TK10   0.986 1 P
 TK15   0.586 1 P
 CT06   1.950 1 S
 CT06   0.922 1 P
 CT05   1.242 1 S
 CT05   0.634 1 P
 CT02   1.510 1 P
 CT02   2.698 1 S
 CT04   1.946 1 S
 CT04   1.018 1 P
 0003   0.946 1 P
 0003   1.742 1 S
 TK05   1.266 1 P
# 2016 10 26 00 54  4.724 35.4381 133.8211   5.943  0.00 0 0 0    114
KU.TUFP   0.980 1 P
KU.TUFP   1.668 1 S
 0007   1.084 1 P
 0007   1.956 1 S
N.SKGH   2.226 1 P
N.SKGH   3.756 1 S
 0011   1.628 1 P
 0011   2.892 1 S
 0019   1.216 1 P
 0019   2.148 1 S
 0020   1.172 1 P
 0020   2.100 1 S
 TK03   1.366 1 P
 TK04   1.246 1 P
 0018   1.396 1 P
 0018   2.404 1 S
 0013   1.956 1 P
 0013   3.412 1 S
 TK01   1.006 1 P
 0016   2.072 1 S
 0016   1.092 1 P
 0009   2.688 1 S
 0009   1.520 1 P
 TK16   2.186 1 P
 TK10   1.806 1 P
 CT06   3.440 1 S
 CT06   1.876 1 P
KU.TKED   1.980 1 S
KU.TKED   1.180 1 P
 CT08   2.632 1 S
 CT08   1.444 1 P
 CT02   4.360 1 S
 CT02   2.492 1 P
 TK15   1.496 1 P
 CT04   2.020 1 P
 CT04   3.756 1 S
 CT05   1.608 1 P
 TK05   2.216 1 P
 0001   2.308 1 P
# 2016 10 26 00 54 30.590 35.4506 133.8236   7.096  0.00 0 0 0    115
 0007   1.426 1 P
 0007   2.506 1 S
N.SKGH   2.460 1 P
N.SKGH   4.140 1 S
 0011   1.898 1 P
 0011   3.122 1 S
N.AKSH   3.540 1 P
N.AKSH   6.060 1 S
 0019   1.330 1 P
 0019   2.298 1 S
 0020   1.270 1 P
 0020   2.306 1 S
 TK03   1.410 1 P
 TK04   1.350 1 P
 0013   2.002 1 P
 0013   3.426 1 S
 0018   1.510 1 P
 0018   2.514 1 S
 CT10   2.570 1 P
 CT10   4.474 1 S
 0016   1.350 1 P
 0016   2.290 1 S
 TK01   1.270 1 P
 0009   2.970 1 S
 0009   1.746 1 P
 TK16   2.370 1 P
 TK10   2.070 1 P
 CT06   3.850 1 S
 CT06   2.166 1 P
 CT02   4.698 1 S
 CT02   2.754 1 P
 CT08   3.002 1 S
 CT08   1.762 1 P
KU.TKED   2.586 1 S
KU.TKED   1.470 1 P
N.KSBH   6.400 1 S
N.KSBH   3.770 1 P
 TK15   1.820 1 P
 CT04   2.334 1 P
 CT04   4.026 1 S
 CT05   1.938 1 P
 CT05   3.450 1 S
 0003   2.234 1 P
 0003   3.790 1 S
 TK05   2.520 1 P
 0001   4.458 1 S
 0001   2.602 1 P
KU.TUFP   2.186 1 S
KU.TUFP   1.298 1 P
# 2016 10 26 00 54 44.167 35.4032 133.8546   3.700  0.00 0 0 0    116
 CT05   0.753 1 P
 TK05   1.523 1 P
 0003   1.205 1 P
 0007   1.945 1 S
 0007   1.033 1 P
KU.TUFP   0.881 1 P
KU.TUFP   1.633 1 S
KU.TKED   0.545 1 P
 TK04   1.413 1 P
 0016   0.853 1 P
 0016   1.577 1 S
 0018   1.269 1 P
 0018   2.313 1 S
 0009   0.757 1 P
 0009   1.425 1 S
 TK16   1.263 1 P
 TK10   0.833 1 P
 CT06   0.917 1 P
 CT06   1.761 1 S
 CT08   0.545 1 P
 CT08   1.017 1 S
 CT04   2.137 1 S
 CT04   1.161 1 P
 TK15   0.593 1 P
# 2016 10 26 00 54 51.109 35.3776 133.8652   7.700  0.00 0 0 0    117
 TK05   1.581 1 P
 0001   2.843 1 S
 0001   1.699 1 P
 0003   2.403 1 S
 0003   1.427 1 P
 CT05   2.275 1 S
 CT05   1.163 1 P
N.SKGH   4.201 1 S
N.SKGH   2.341 1 P
 0011   4.139 1 S
 0011   2.299 1 P
 0007   3.075 1 S
 0007   1.723 1 P
KU.TUFP   2.851 1 S
 0019   4.091 1 S
 0019   2.351 1 P
 TK15   1.361 1 P
KU.TKED   2.755 1 S
KU.TKED   1.495 1 P
 0020   2.199 1 P
 0020   4.019 1 S
KU.TKYD   2.943 1 S
 TK01   1.871 1 P
 TK03   2.281 1 P
 CT08   1.899 1 S
 0016   1.675 1 P
 0016   2.955 1 S
 0018   3.335 1 S
 0009   2.563 1 S
 0013   3.787 1 S
 TK10   1.401 1 P
 CT10   3.323 1 S
 CT21   1.635 1 P
 CT21   2.963 1 S
 CT06   2.151 1 S
 CT02   1.639 1 P
 CT02   2.851 1 S
N.KSBH   2.481 1 P
N.KSBH   4.241 1 S
 CT04   2.307 1 S
 CT04   1.315 1 P
# 2016 10 26 00 55  4.878 35.4419 133.8255   5.100  0.00 0 0 0    118
KU.TUFP   0.894 1 P
KU.TUFP   1.546 1 S
 0007   1.094 1 P
 0007   1.978 1 S
 0011   2.914 1 S
 0019   1.106 1 P
 0019   1.962 1 S
 0020   0.946 1 P
 0020   1.802 1 S
 TK03   1.132 1 P
 TK04   1.022 1 P
 0013   3.114 1 S
 TK01   0.782 1 P
 0016   1.654 1 S
 TK10   1.742 1 P
 CT08   2.626 1 S
 TK15   1.492 1 P
# 2016 10 26 00 55 19.429 35.4228 133.8399   3.100  0.00 0 0 0    119
 0001   1.923 1 P
 0001   3.491 1 S
 0007   0.723 1 P
 0007   1.459 1 S
 0011   1.499 1 P
 0011   2.919 1 S
KU.TUFP   0.491 1 P
KU.TUFP   0.947 1 S
 0019   1.111 1 P
 0019   2.171 1 S
 0020   0.927 1 P
 0020   2.019 1 S
 TK03   1.111 1 P
 TK04   0.911 1 P
 0016   0.503 1 P
 0016   1.027 1 S
 0018   0.939 1 P
 0018   1.883 1 S
 0013   2.947 1 S
 0009   1.691 1 S
 0009   0.851 1 P
 TK16   1.561 1 P
KU.TKED   0.523 1 P
KU.TKED   0.995 1 S
 TK10   1.131 1 P
 CT08   1.619 1 S
 CT08   0.791 1 P
 CT06   1.267 1 P
 TK15   0.861 1 P
 CT04   1.535 1 P
 CT05   2.151 1 S
 CT05   1.091 1 P
# 2016 10 26 00 55 52.654 35.3844 133.8998   5.100  0.00 0 0 0    120
 CT02   1.250 1 P
 CT02   2.058 1 S
 CT04   1.106 1 P
 TK05   1.656 1 P
 0003   2.366 1 S
 0003   1.362 1 P
 CT06   1.490 1 S
 CT06   0.874 1 P
 CT05   2.030 1 S
 CT05   1.146 1 P
 TK15   1.106 1 P
 CT08   1.066 1 P
 TK10   0.796 1 P
 0009   1.642 1 S
 TK16   0.986 1 P
 CT21   1.722 1 S
 CT21   0.998 1 P
# 2016 10 26 00 56 10.644 35.3600 133.8711   2.700  0.00 0 0 0    121
 CT04   0.412 1 P
 CT04   0.732 1 S
 TK05   0.796 1 P
 0001   1.732 1 S
 0001   0.952 1 P
 0003   1.132 1 S
 0003   0.604 1 P
 CT05   1.076 1 S
 CT05   0.592 1 P
 TK15   0.716 1 P
 CT08   0.904 1 P
 CT08   1.716 1 S
 TK10   0.826 1 P
 CT06   1.068 1 S
 CT06   0.552 1 P
 TK16   1.206 1 P
 CT02   0.776 1 P
 CT02   1.372 1 S
