# 2016 10 26 00 56 35.871 35.4014 133.8894   6.090  0.00 0 0 0    122
 CT04   1.341 1 P
 CT06   1.133 1 P
 CT06   1.969 1 S
 TK10   0.979 1 P
 TK05   1.809 1 P
 0001   1.969 1 P
 0001   3.369 1 S
 TK15   1.299 1 P
 TK01   1.579 1 P
 0009   0.937 1 P
 0009   1.577 1 S
 TK04   1.769 1 P
 0018   2.689 1 S
 0018   1.449 1 P
 0013   2.781 1 S
 TK16   1.159 1 P
 CT21   2.125 1 S
 CT21   1.149 1 P
 CT02   2.609 1 S
 CT02   1.529 1 P
# 2016 10 26 00 56 49.386 35.4354 133.8165   5.098  0.00 0 0 0    123
KU.TUFP   0.870 1 P
KU.TUFP   1.490 1 S
 0007   1.026 1 P
 0007   1.862 1 S
 0020   1.030 1 P
 0020   1.914 1 S
 TK03   1.164 1 P
 TK04   1.144 1 P
 0018   1.366 1 P
 0018   2.278 1 S
 0013   3.382 1 S
 TK01   0.894 1 P
 0016   1.730 1 S
 TK16   2.114 1 P
 TK10   1.794 1 P
 CT08   2.610 1 S
 TK05   2.224 1 P
# 2016 10 26 00 57 55.028 35.3706 133.8702   2.750  0.00 0 0 0    124
 TK05   0.952 1 P
 0001   2.060 1 S
 0001   1.116 1 P
 0003   1.312 1 S
 0003   0.700 1 P
 0007   2.628 1 S
 0007   1.368 1 P
 CT05   0.812 1 S
 CT05   0.412 1 P
KU.TUFP   2.544 1 S
 TK15   0.522 1 P
KU.TKED   2.104 1 S
KU.TKED   0.968 1 P
 TK01   1.662 1 P
 CT08   0.584 1 P
 CT08   1.236 1 S
 TK04   1.952 1 P
 0016   1.336 1 P
 0018   1.720 1 P
 0018   3.172 1 S
 0009   0.912 1 P
 TK10   0.542 1 P
 CT21   1.884 1 S
 CT21   0.940 1 P
 TK16   1.002 1 P
 CT06   0.740 1 S
 CT06   0.364 1 P
 CT02   0.884 1 P
 CT02   1.700 1 S
N.KSBH   3.642 1 S
 CT04   0.484 1 P
 CT04   0.908 1 S
# 2016 10 26 00 58  7.015 35.4038 133.8470   6.336  0.00 0 0 0    125
 0001   3.081 1 S
N.SKGH   3.635 1 S
 0011   1.657 1 P
 0011   3.253 1 S
 0020   1.569 1 P
 0020   3.077 1 S
 TK01   1.285 1 P
 TK03   1.675 1 P
 TK04   1.525 1 P
 0016   2.153 1 S
 0013   3.413 1 S
 TK16   1.505 1 P
 CT21   1.757 1 P
 TK10   1.235 1 P
 CT08   1.613 1 S
 CT06   2.305 1 S
 CT04   1.673 1 P
 CT04   2.181 1 S
 CT05   2.409 1 S
 0003   2.533 1 S
 0003   1.493 1 P
# 2016 10 26 00 58 26.551 35.4046 133.8989   6.300  0.00 0 0 0    126
 CT04   1.521 1 P
 CT04   2.513 1 S
 CT06   1.281 1 P
 CT06   2.217 1 S
 TK05   1.969 1 P
 0001   2.097 1 P
 TK10   1.199 1 P
 CT05   2.357 1 S
 CT05   1.421 1 P
 TK15   1.279 1 P
 CT08   1.213 1 P
 CT08   2.081 1 S
 0011   4.325 1 S
 0011   2.541 1 P
 0007   3.533 1 S
 0007   1.765 1 P
KU.TKED   1.289 1 P
KU.TUFP   1.601 1 P
KU.TUFP   3.249 1 S
 0009   1.673 1 S
 0009   0.973 1 P
 TK04   1.779 1 P
 TK03   1.969 1 P
 0018   2.565 1 S
 0018   1.501 1 P
 CT02   2.897 1 S
# 2016 10 26 00 58 42.073 35.4185 133.8480   5.100  0.00 0 0 0    127
 TK05   1.817 1 P
 0001   3.431 1 S
 0001   1.935 1 P
 0007   1.987 1 S
 0007   0.983 1 P
 0011   3.219 1 S
 0011   1.747 1 P
KU.TUFP   1.491 1 S
KU.TUFP   0.855 1 P
 0020   2.395 1 S
 0020   1.159 1 P
 TK01   0.957 1 P
 TK03   1.577 1 P
 TK04   1.227 1 P
 0016   1.607 1 S
 0018   1.159 1 P
 0018   2.135 1 S
 0013   2.831 1 S
 0009   0.975 1 P
 0009   1.771 1 S
 TK16   1.577 1 P
 TK10   1.187 1 P
 CT02   3.451 1 S
 CT06   2.591 1 S
 CT06   1.295 1 P
 CT08   1.767 1 S
 CT08   0.923 1 P
 CT04   2.735 1 S
 CT04   1.531 1 P
 TK15   1.017 1 P
 CT05   2.131 1 S
# 2016 10 26 00 59 15.428 35.3903 133.8264   1.700  0.00 0 0 0    128
KURAYO   0.362 1 S
N.SKGH   1.582 1 P
N.SKGH   2.892 1 S
 0011   1.324 1 P
 0011   2.572 1 S
N.AKSH   3.652 1 P
N.AKSH   6.462 1 S
 0007   0.524 1 P
 0007   1.064 1 S
 0019   1.492 1 P
 0019   2.916 1 S
KU.TUFP   0.576 1 P
KU.TUFP   1.172 1 S
 0020   1.424 1 P
 0020   2.868 1 S
 TK01   1.082 1 P
 TK03   1.732 1 P
 TK04   1.502 1 P
KU.TKYD   1.476 1 S
KU.TKYD   0.728 1 P
 0016   1.948 1 S
 0016   0.996 1 P
 0018   2.916 1 S
 0018   1.504 1 P
KU.TKED   1.100 1 S
KU.TKED   0.532 1 P
 0013   3.828 1 S
 0013   2.048 1 P
 0009   2.056 1 S
 0009   1.112 1 P
 CT08   0.604 1 P
 CT08   1.412 1 S
 CT10   2.044 1 P
 CT10   3.752 1 S
 TK16   1.612 1 P
 CT21   1.544 1 P
 TK10   1.072 1 P
 TK15   0.552 1 P
 CT06   0.984 1 P
 CT05   1.304 1 S
 CT05   0.588 1 P
 CT02   2.964 1 S
 CT02   1.576 1 P
 CT04   1.032 1 P
N.KSBH   4.772 1 S
N.KSBH   2.702 1 P
 0003   0.840 1 P
 0003   1.752 1 S
 TK05   1.182 1 P
 0001   2.536 1 S
 0001   1.296 1 P
# 2016 10 26 01 00 28.046 35.4456 133.8178   5.547  0.00 0 0 0    129
 0007   1.142 1 P
 0007   2.090 1 S
N.SKGH   2.264 1 P
N.SKGH   3.754 1 S
 0011   1.622 1 P
 0011   2.834 1 S
N.AKSH   3.414 1 P
N.AKSH   5.714 1 S
 0019   1.058 1 P
 0019   1.898 1 S
 0020   1.002 1 P
 0020   1.850 1 S
 TK03   1.214 1 P
 TK04   1.124 1 P
 0013   1.910 1 P
 0013   3.366 1 S
 0018   1.338 1 P
 0018   2.314 1 S
 TK01   0.934 1 P
 0016   1.958 1 S
 0016   1.098 1 P
 CT10   4.374 1 S
 CT10   2.466 1 P
 0009   2.794 1 S
 0009   1.586 1 P
 TK16   2.224 1 P
 CT21   2.194 1 P
KU.TKYD   1.954 1 S
KU.TKYD   1.098 1 P
 TK10   1.864 1 P
KU.TKED   1.242 1 P
KU.TKED   2.174 1 S
 CT06   2.018 1 P
 CT06   3.626 1 S
 CT08   1.562 1 P
 CT08   2.874 1 S
 CT02   2.626 1 P
 CT02   4.602 1 S
 TK15   1.594 1 P
 CT04   3.866 1 S
 CT04   2.162 1 P
N.KSBH   6.294 1 S
N.KSBH   3.684 1 P
 CT05   3.186 1 S
 CT05   1.734 1 P
 0003   2.042 1 P
 0003   3.562 1 S
KU.TUFP   1.738 1 S
KU.TUFP   0.994 1 P
 TK05   2.354 1 P
 0001   4.322 1 S
 0001   2.450 1 P
KURAYO   1.564 1 P
# 2016 10 26 01 01 42.251 35.3808 133.8751   2.514  0.00 0 0 0    130
 CT04   0.589 1 P
 CT04   1.081 1 S
 TK05   1.129 1 P
 0001   1.281 1 P
 CT06   0.373 1 P
 CT06   0.749 1 S
 0003   0.849 1 P
 CT05   0.985 1 S
 CT05   0.477 1 P
 TK15   0.479 1 P
 CT08   0.509 1 P
 CT08   1.089 1 S
KU.TKED   0.869 1 P
 0009   0.817 1 P
 TK10   0.469 1 P
 CT21   0.861 1 P
 TK16   0.969 1 P
 CT02   1.029 1 P
# 2016 10 26 01 02  9.439 35.3974 133.8286   3.026  0.00 0 0 0    131
 0011   1.421 1 P
 0007   1.209 1 S
 0007   0.625 1 P
KU.TUFP   1.265 1 S
KU.TUFP   0.681 1 P
 TK01   1.171 1 P
 TK03   1.911 1 P
 0009   1.217 1 P
 CT08   0.701 1 P
 CT08   1.493 1 S
 TK10   1.181 1 P
 TK15   0.651 1 P
 CT06   1.081 1 P
 CT05   0.669 1 P
 CT04   1.137 1 P
 0003   0.913 1 P
 0003   1.817 1 S
 TK05   1.281 1 P
 0001   2.621 1 S
 0001   1.437 1 P
# 2016 10 26 01 02 19.006 35.3925 133.8837   4.761  0.00 0 0 0    132
 CT06   0.842 1 P
 CT06   1.466 1 S
 CT04   1.046 1 P
 CT04   1.834 1 S
 TK05   1.554 1 P
 0001   2.878 1 S
 0001   1.674 1 P
 0003   2.238 1 S
 CT05   0.970 1 P
 CT05   1.754 1 S
 TK15   0.914 1 P
 CT08   1.586 1 S
 CT08   0.862 1 P
 0007   1.634 1 P
KU.TUFP   1.490 1 P
 TK04   1.824 1 P
 0009   1.498 1 S
 0009   0.826 1 P
 TK16   0.974 1 P
 CT21   0.962 1 P
 CT21   1.822 1 S
 TK10   0.724 1 P
 CT02   2.218 1 S
 CT02   1.278 1 P
# 2016 10 26 01 02 26.514 35.4341 133.8418   2.684  0.00 0 0 0    133
KU.TKYD   0.810 1 S
KU.TUFP   0.606 1 P
KU.TUFP   1.206 1 S
 0019   1.014 1 P
 0020   0.738 1 P
 0020   1.642 1 S
 TK01   0.376 1 P
 TK03   0.876 1 P
 TK04   0.646 1 P
 0018   0.742 1 P
 0018   1.478 1 S
 0013   2.654 1 S
 0016   0.758 1 S
 0009   0.898 1 P
 TK16   1.636 1 P
 TK10   1.286 1 P
 CT06   2.794 1 S
 CT04   1.758 1 P
KU.TKED   0.630 1 P
# 2016 10 26 01 02 39.657 35.4414 133.8376   8.700  0.00 0 0 0    134
 0001   2.527 1 P
 0001   4.487 1 S
KU.TUFP   1.567 1 P
KU.TUFP   2.543 1 S
 0007   1.671 1 P
 0007   2.887 1 S
N.SKGH   2.633 1 P
N.SKGH   4.403 1 S
 TK01   1.523 1 P
 0011   3.599 1 S
 0011   2.147 1 P
N.AKSH   6.343 1 S
 0019   2.823 1 S
 0019   1.683 1 P
 0020   2.771 1 S
 0020   1.583 1 P
 TK03   1.663 1 P
 TK04   1.593 1 P
 0018   2.727 1 S
 0018   1.695 1 P
 0013   3.471 1 S
 CT10   2.599 1 P
 0016   2.515 1 S
 TK16   2.393 1 P
 0009   1.827 1 P
 0009   3.007 1 S
 CT21   3.787 1 S
 TK10   2.143 1 P
 CT02   2.399 1 P
 CT06   2.099 1 P
N.KSBH   6.323 1 S
N.KSBH   3.433 1 P
 CT08   3.131 1 S
 CT04   4.071 1 S
 CT04   2.047 1 P
KU.TKYD   2.535 1 S
KU.TKED   1.875 1 P
KU.TKED   2.783 1 S
 CT05   2.091 1 P
 TK05   2.383 1 P
# 2016 10 26 01 02 59.558 35.4215 133.9206   5.500  0.00 0 0 0    135
 TK16   1.132 1 P
 CT02   3.042 1 S
 CT02   1.830 1 P
 CT21   2.170 1 S
 CT21   1.210 1 P
 CT04   2.950 1 S
 CT04   1.730 1 P
 CT06   1.454 1 P
 TK05   2.302 1 P
 TK10   1.222 1 P
 0001   4.442 1 S
 0001   2.430 1 P
 0003   2.070 1 P
 CT05   1.706 1 P
 CT08   1.514 1 P
 CT08   2.678 1 S
 0009   1.698 1 S
 0009   1.042 1 P
KU.TKED   1.430 1 P
 0016   2.618 1 S
 0016   1.474 1 P
 0018   1.426 1 P
 CT10   1.090 1 P
 CT10   1.914 1 S
# 2016 10 26 01 03  5.117 35.4456 133.8188   5.527  0.00 0 0 0    136
 0007   1.139 1 P
 0007   2.087 1 S
N.SKGH   2.263 1 P
N.SKGH   3.843 1 S
 0011   1.615 1 P
 0011   2.835 1 S
N.AKSH   3.413 1 P
N.AKSH   5.753 1 S
 0019   1.051 1 P
 0019   1.883 1 S
 0020   1.003 1 P
 0020   1.867 1 S
 TK03   1.213 1 P
 TK04   1.123 1 P
 0013   3.423 1 S
 0018   1.335 1 P
 0018   2.331 1 S
 TK01   0.953 1 P
 0016   1.931 1 S
 0016   1.099 1 P
 CT10   2.483 1 P
 0009   1.579 1 P
 0009   2.763 1 S
 TK16   2.223 1 P
KU.TKYD   1.939 1 S
KU.TKYD   1.099 1 P
 TK10   1.863 1 P
KU.TKED   1.243 1 P
KU.TKED   2.155 1 S
 CT06   3.611 1 S
 CT06   1.995 1 P
 CT08   2.779 1 S
 CT08   1.559 1 P
 CT02   2.635 1 P
 CT02   4.603 1 S
 TK15   1.603 1 P
 CT04   2.151 1 P
 CT04   3.867 1 S
N.KSBH   6.283 1 S
N.KSBH   3.703 1 P
 CT05   1.723 1 P
 CT05   3.187 1 S
 0003   3.515 1 S
 0003   2.035 1 P
KU.TUFP   1.715 1 S
KU.TUFP   0.999 1 P
 TK05   2.353 1 P
 0001   2.451 1 P
 0001   4.291 1 S
KURAYO   1.563 1 P
KURAYO   2.743 1 S
# 2016 10 26 01 03 15.959 35.4499 133.8263   5.654  0.00 0 0 0    137
KU.TUFP   1.097 1 P
KU.TUFP   1.761 1 S
 0007   1.305 1 P
 0007   2.209 1 S
 0011   1.881 1 P
 0019   1.225 1 P
 0019   2.049 1 S
 0020   1.057 1 P
 0020   1.833 1 S
 TK03   1.221 1 P
 TK04   1.101 1 P
 0018   1.325 1 P
 0018   2.145 1 S
 0016   1.069 1 P
 0016   1.785 1 S
 TK01   0.971 1 P
 TK16   2.281 1 P
 0009   1.585 1 P
 TK10   1.921 1 P
 CT06   1.913 1 P
KU.TKYD   1.925 1 S
 CT08   1.605 1 P
 CT08   2.889 1 S
KU.TKED   1.277 1 P
KU.TKED   2.193 1 S
 CT04   2.309 1 P
 TK15   1.721 1 P
 CT05   1.905 1 P
 CT05   3.333 1 S
 TK05   2.251 1 P
 0001   2.393 1 P
# 2016 10 26 01 03 41.316 35.4501 133.8217   5.979  0.00 0 0 0    138
KU.TUFP   1.100 1 P
KU.TUFP   1.820 1 S
KURAYO   1.624 1 P
 0007   1.240 1 P
 0007   2.164 1 S
N.SKGH   2.344 1 P
N.SKGH   3.974 1 S
 0011   1.704 1 P
 0011   2.940 1 S
N.AKSH   3.524 1 P
N.AKSH   5.854 1 S
 0019   1.148 1 P
 0019   1.996 1 S
 0020   1.092 1 P
 0020   1.964 1 S
 TK03   1.314 1 P
 TK04   1.214 1 P
 0018   1.428 1 P
 0018   2.420 1 S
 0016   1.188 1 P
 0016   2.036 1 S
 TK01   1.054 1 P
 0009   2.936 1 S
 0009   1.668 1 P
 TK16   2.324 1 P
 TK10   1.964 1 P
 CT06   2.088 1 P
 CT06   3.688 1 S
 CT02   4.660 1 S
 CT02   2.736 1 P
KU.TKYD   2.164 1 S
 CT08   2.948 1 S
 CT08   1.636 1 P
N.KSBH   3.814 1 P
N.KSBH   6.404 1 S
KU.TKED   1.312 1 P
KU.TKED   2.284 1 S
 TK15   1.734 1 P
 CT04   2.256 1 P
 CT04   3.988 1 S
 CT05   1.828 1 P
 CT05   3.292 1 S
 0003   2.140 1 P
 0003   3.664 1 S
 TK05   2.444 1 P
 0001   4.404 1 S
 0001   2.544 1 P
# 2016 10 26 01 03 49.932 35.4237 133.8215   6.330  0.00 0 0 0    139
KURAYO   2.358 1 S
 0007   1.092 1 P
 0007   1.948 1 S
N.SKGH   3.668 1 S
 0019   1.352 1 P
 0019   2.476 1 S
 0020   1.352 1 P
 0020   2.476 1 S
 TK03   1.548 1 P
 TK04   1.388 1 P
 TK01   1.128 1 P
 0018   2.544 1 S
 0018   1.516 1 P
 0016   2.076 1 S
 0016   1.168 1 P
KU.TKYD   2.308 1 S
KU.TKYD   1.084 1 P
 0009   2.540 1 S
 0009   1.460 1 P
KU.TKED   1.100 1 P
 CT08   1.356 1 P
 CT08   2.384 1 S
 CT06   3.120 1 S
 TK15   1.408 1 P
 CT02   2.332 1 P
 CT02   3.980 1 S
 CT04   1.884 1 P
 CT04   3.204 1 S
 CT05   1.616 1 P
 CT05   2.544 1 S
KU.TUFP   0.992 1 P
KU.TUFP   1.652 1 S
 TK05   2.058 1 P
 0001   3.740 1 S
 0001   2.188 1 P
# 2016 10 26 01 04 19.678 35.3968 133.8902   6.300  0.00 0 0 0    140
 CT06   1.970 1 S
 CT04   2.346 1 S
 CT04   1.346 1 P
 TK05   1.822 1 P
 CT05   1.338 1 P
 CT05   2.266 1 S
 TK15   1.262 1 P
 CT08   1.190 1 P
 CT08   2.242 1 S
KU.TKED   2.142 1 S
 0018   1.618 1 P
 0018   2.718 1 S
 0009   1.822 1 S
 CT10   2.254 1 S
 TK16   1.172 1 P
 TK10   1.082 1 P
# 2016 10 26 01 05  8.008 35.4424 133.8259   5.500  0.00 0 0 0    141
KU.TUFP   1.016 1 P
KU.TUFP   1.744 1 S
 0007   1.144 1 P
 0007   2.064 1 S
N.SKGH   3.912 1 S
 0011   2.792 1 S
 0019   1.088 1 P
 0019   1.904 1 S
 0020   0.996 1 P
 0020   1.816 1 S
 TK03   1.222 1 P
 TK04   1.132 1 P
 0018   1.332 1 P
 0016   1.896 1 S
 0016   1.112 1 P
 TK16   1.982 1 P
 TK10   1.872 1 P
 CT06   3.428 1 S
 CT06   1.936 1 P
 CT02   4.280 1 S
 CT08   1.556 1 P
KU.TKED   1.876 1 S
KU.TKED   1.148 1 P
 CT04   3.064 1 S
 CT04   1.936 1 P
 TK15   1.582 1 P
 CT05   1.592 1 P
 CT05   3.208 1 S
 0003   3.640 1 S
 TK05   2.262 1 P
 0001   4.340 1 S
 0001   2.320 1 P
# 2016 10 26 01 05 20.496 35.4442 133.8205   4.908  0.00 0 0 0    142
KU.TUFP   0.888 1 P
KU.TUFP   1.608 1 S
 0007   1.024 1 P
 0007   1.968 1 S
N.SKGH   3.744 1 S
 0011   1.504 1 P
 0011   2.728 1 S
 0019   0.976 1 P
 0019   1.792 1 S
 TK03   1.104 1 P
 TK04   1.014 1 P
 0018   1.248 1 P
 0018   2.200 1 S
 TK01   0.844 1 P
 0016   1.904 1 S
 0016   0.976 1 P
 0009   1.460 1 P
 TK16   2.134 1 P
KU.TKED   2.068 1 S
 CT08   2.832 1 S
 CT02   4.512 1 S
 TK15   1.534 1 P
 TK05   2.244 1 P
 0001   4.200 1 S
 0001   2.384 1 P
# 2016 10 26 01 05 36.816 35.4619 133.8037   6.488  0.00 0 0 0    143
 0011   1.896 1 P
 0011   3.112 1 S
 0019   2.128 1 S
 TK03   1.504 1 P
 TK04   1.384 1 P
 0013   3.744 1 S
 TK01   1.244 1 P
 0009   3.872 1 S
 0009   1.864 1 P
 CT06   3.936 1 S
 CT04   4.216 1 S
 CT05   4.108 1 S
KU.TUFP   2.024 1 S
KU.TUFP   1.280 1 P
 0001   2.780 1 P
 0007   2.368 1 S
# 2016 10 26 01 06  2.037 35.4503 133.8233   6.100  0.00 0 0 0    144
KURAYO   1.713 1 P
KU.TUFP   1.127 1 P
KU.TUFP   1.835 1 S
 0007   1.271 1 P
 0007   2.195 1 S
N.SKGH   2.393 1 P
 0011   1.747 1 P
 0011   2.947 1 S
N.AKSH   3.553 1 P
N.AKSH   5.903 1 S
 0019   1.183 1 P
 0019   2.003 1 S
 0020   1.163 1 P
 0020   1.947 1 S
 TK03   1.353 1 P
 TK04   1.253 1 P
 0013   3.319 1 S
 0018   1.471 1 P
 0018   2.483 1 S
 TK16   1.983 1 P
 0009   1.723 1 P
 0009   2.679 1 S
 CT21   3.195 1 S
 0016   2.083 1 S
 0016   1.231 1 P
 TK10   1.803 1 P
 CT02   4.763 1 S
 CT06   3.779 1 S
 CT06   2.155 1 P
 TK01   1.073 1 P
 CT08   1.695 1 P
 CT08   2.995 1 S
 CT04   1.995 1 P
 CT04   4.051 1 S
KU.TKYD   1.255 1 P
KU.TKYD   2.131 1 S
 TK15   1.743 1 P
KU.TKED   2.355 1 S
KU.TKED   1.367 1 P
 CT05   3.339 1 S
 CT05   1.879 1 P
 TK05   2.353 1 P
 0001   2.515 1 P
 0001   4.451 1 S
# 2016 10 26 01 06 45.604 35.3917 133.8979   9.055  0.00 0 0 0    145
 CT06   1.628 1 P
 CT06   2.700 1 S
 CT04   1.784 1 P
 CT04   2.900 1 S
 TK05   2.066 1 P
 0001   3.820 1 S
 0001   2.140 1 P
 TK10   1.556 1 P
 CT05   1.732 1 P
 CT05   2.956 1 S
 TK15   1.736 1 P
 0011   2.472 1 P
 CT08   1.700 1 P
 CT08   2.852 1 S
KU.TKED   1.836 1 P
 TK01   2.166 1 P
 0020   4.312 1 S
 0016   3.140 1 S
 0018   3.288 1 S
 0018   1.988 1 P
 0009   2.564 1 S
 0009   1.596 1 P
 CT10   1.756 1 P
 CT10   2.844 1 S
 TK16   1.666 1 P
 CT21   1.732 1 P
 CT21   2.884 1 S
N.KSBH   4.566 1 S
 CT02   1.880 1 P
 CT02   3.108 1 S
# 2016 10 26 01 07 18.419 35.4105 133.9209   6.229  0.00 0 0 0    146
 CT02   1.717 1 P
 CT02   2.901 1 S
 CT21   1.209 1 P
 CT21   2.253 1 S
 CT04   1.665 1 P
 CT04   2.917 1 S
 CT06   1.393 1 P
 CT06   2.445 1 S
 TK05   2.211 1 P
N.YBRH  10.461 1 S
 0001   3.989 1 S
 0001   2.361 1 P
 TK10   1.181 1 P
 0003   1.997 1 P
 0003   3.349 1 S
 CT05   2.813 1 S
 CT05   1.637 1 P
 CT08   2.569 1 S
KURAYO   3.741 1 S
N.SKGH   5.521 1 S
N.SKGH   3.261 1 P
 0009   1.097 1 P
 0009   1.797 1 S
KU.TKED   1.589 1 P
KU.TKED   2.781 1 S
 0007   2.137 1 P
 0007   3.845 1 S
 0011   2.941 1 P
 0011   5.077 1 S
KU.TUFP   1.929 1 P
 0016   1.521 1 P
 0016   2.621 1 S
 TK01   1.851 1 P
 0019   2.421 1 P
 0020   3.989 1 S
 0020   2.197 1 P
 TK04   1.911 1 P
 TK03   2.091 1 P
 0018   1.505 1 P
 0018   2.549 1 S
 0013   1.405 1 P
 0013   2.469 1 S
 CT10   2.125 1 S
 CT10   1.129 1 P
N.KSBH   4.691 1 S
N.KSBH   2.781 1 P
# 2016 10 26 01 07 49.313 35.4177 133.9151   6.846  0.00 0 0 0    147
 TK16   1.357 1 P
 CT02   3.319 1 S
 CT02   1.899 1 P
 CT21   2.535 1 S
 CT21   1.415 1 P
 CT04   3.019 1 S
 CT04   1.791 1 P
 CT06   2.631 1 S
 CT06   1.539 1 P
 TK05   2.277 1 P
 0001   2.435 1 P
 0001   4.071 1 S
 TK10   1.327 1 P
 0003   3.399 1 S
 0003   2.067 1 P
 CT05   2.975 1 S
 CT05   1.723 1 P
 TK15   1.607 1 P
 CT08   1.523 1 P
 CT08   2.631 1 S
N.SKGH   3.237 1 P
N.SKGH   5.407 1 S
 0009   1.183 1 P
 0009   1.903 1 S
KU.TKED   1.575 1 P
 0007   2.103 1 P
 0007   3.807 1 S
 0011   2.867 1 P
 0011   5.143 1 S
KU.TUFP   1.887 1 P
KU.TUFP   3.143 1 S
KU.TKYD   1.619 1 P
 0016   1.503 1 P
 0016   2.495 1 S
 TK01   1.797 1 P
 0019   4.295 1 S
 0019   2.455 1 P
 0020   3.783 1 S
 0020   2.111 1 P
 TK04   1.847 1 P
 TK03   2.027 1 P
 0018   2.471 1 S
 0018   1.495 1 P
 0013   2.503 1 S
 0013   1.463 1 P
 CT10   2.455 1 S
 CT10   1.411 1 P
N.KSBH   4.967 1 S
N.KSBH   2.957 1 P
# 2016 10 26 01 08  9.992 35.4162 133.8580   5.605  0.00 0 0 0    148
 CT08   0.960 1 P
 CT08   1.760 1 S
 TK15   1.028 1 P
 TK05   1.758 1 P
 0001   1.884 1 P
 0001   3.364 1 S
N.SKGH   4.198 1 S
 0007   2.160 1 S
 0011   1.912 1 P
 0011   3.344 1 S
KU.TKED   1.556 1 S
KU.TKED   0.876 1 P
KU.TUFP   1.760 1 S
KU.TUFP   1.020 1 P
 TK01   1.188 1 P
 0016   1.800 1 S
 TK04   1.418 1 P
 0018   1.328 1 P
 TK10   1.178 1 P
 CT02   3.224 1 S
 CT06   2.596 1 S
 CT04   2.656 1 S
 CT04   1.456 1 P
# 2016 10 26 01 08 22.170 35.4651 133.8245   4.342  0.00 0 0 0    149
 0011   3.186 1 S
 0019   0.870 1 P
 0019   1.590 1 S
 TK03   0.890 1 P
 TK04   0.890 1 P
 0018   1.218 1 P
 0018   2.094 1 S
 0016   2.030 1 S
 0009   2.958 1 S
 TK01   0.850 1 P
 TK10   1.980 1 P
 TK15   1.860 1 P
KU.TUFP   1.130 1 P
KU.TUFP   2.038 1 S
# 2016 10 26 01 08 56.930 35.3960 133.8862   5.857  0.00 0 0 0    150
 CT04   1.262 1 P
 CT04   2.182 1 S
 CT06   1.062 1 P
 CT06   1.870 1 S
 TK05   1.730 1 P
 TK10   0.920 1 P
 CT05   1.242 1 P
 CT05   2.162 1 S
 TK15   1.170 1 P
 CT08   1.098 1 P
 TK01   1.660 1 P
 TK04   1.840 1 P
 0009   1.670 1 S
 0009   0.982 1 P
 0018   2.586 1 S
 0018   1.502 1 P
 TK16   1.040 1 P
 CT21   1.110 1 P
 CT21   1.990 1 S
# 2016 10 26 01 09 38.662 35.4175 133.9148   6.300  0.00 0 0 0    151
 TK16   1.268 1 P
 CT02   1.842 1 P
 CT21   2.410 1 S
 CT21   1.334 1 P
 CT04   1.738 1 P
 CT04   2.970 1 S
 CT06   1.470 1 P
 CT06   2.478 1 S
 TK05   2.248 1 P
 0001   2.398 1 P
 0001   4.006 1 S
 TK10   1.258 1 P
 0003   3.350 1 S
 0003   2.018 1 P
 CT05   1.666 1 P
 CT05   2.866 1 S
 TK15   1.568 1 P
 CT08   2.562 1 S
 CT08   1.474 1 P
KURAYO   3.548 1 S
KURAYO   2.108 1 P
N.SKGH   5.368 1 S
N.SKGH   3.168 1 P
 0009   1.098 1 P
 0009   1.770 1 S
KU.TKED   1.506 1 P
 0007   2.046 1 P
 0007   3.538 1 S
 0011   2.826 1 P
 0011   4.970 1 S
KU.TUFP   1.830 1 P
KU.TKYD   1.506 1 P
N.AKSH   4.918 1 P
N.AKSH   8.158 1 S
 0016   1.434 1 P
 0016   2.390 1 S
 TK01   1.728 1 P
 0019   4.202 1 S
 0019   2.402 1 P
 0020   3.690 1 S
 0020   2.066 1 P
 TK04   1.788 1 P
 TK03   1.988 1 P
 0018   2.386 1 S
 0018   1.434 1 P
 0013   2.434 1 S
 0013   1.382 1 P
 CT10   2.302 1 S
 CT10   1.342 1 P
N.KSBH   4.978 1 S
N.KSBH   2.918 1 P
# 2016 10 26 01 10  0.548 35.4173 133.9116   6.817  0.00 0 0 0    152
 TK16   1.352 1 P
 CT02   1.892 1 P
 CT21   2.472 1 S
 CT21   1.408 1 P
 CT04   1.796 1 P
 CT04   3.016 1 S
 CT06   1.536 1 P
 CT06   2.628 1 S
 TK10   1.322 1 P
 CT05   3.004 1 S
 CT05   1.708 1 P
 TK15   1.642 1 P
 CT08   1.500 1 P
 CT08   2.692 1 S
 0009   1.884 1 S
 0009   1.176 1 P
KU.TKED   1.560 1 P
KU.TUFP   1.824 1 P
 0016   2.496 1 S
 0016   1.496 1 P
 TK01   1.792 1 P
 TK04   1.842 1 P
 TK03   2.022 1 P
 0018   1.496 1 P
 0018   2.484 1 S
 0013   1.432 1 P
 0013   2.516 1 S
 CT10   2.424 1 S
 CT10   1.400 1 P
